{
"type": "FeatureCollection",
"name": "taluk",
"crs": { "type": "name", "properties": { "name": "urn:ogc:def:crs:OGC:1.3:CRS84" } },
"xy_coordinate_resolution": 0.0001,
"features": [
{ "type": "Feature", "properties": { "taluk": "Krishnarajpet" }, "geometry": { "type": "Polygon", "coordinates": [ [ [ 76.403, 12.553 ], [ 76.3903, 12.5523 ], [ 76.3889, 12.5605 ], [ 76.3974, 12.569 ], [ 76.3962, 12.5733 ], [ 76.3779, 12.5755 ], [ 76.37, 12.6061 ], [ 76.3635, 12.6077 ], [ 76.3633, 12.6261 ], [ 76.3522, 12.6397 ], [ 76.3516, 12.6507 ], [ 76.342, 12.6557 ], [ 76.3479, 12.6684 ], [ 76.3529, 12.668 ], [ 76.3522, 12.6725 ], [ 76.3621, 12.6718 ], [ 76.3534, 12.6726 ], [ 76.3537, 12.6852 ], [ 76.36, 12.6869 ], [ 76.3592, 12.6922 ], [ 76.3724, 12.6931 ], [ 76.3618, 12.693 ], [ 76.3615, 12.7118 ], [ 76.3737, 12.7143 ], [ 76.3549, 12.7109 ], [ 76.346, 12.7193 ], [ 76.3413, 12.732 ], [ 76.3457, 12.7375 ], [ 76.3441, 12.7423 ], [ 76.3553, 12.7438 ], [ 76.3569, 12.7504 ], [ 76.3713, 12.7499 ], [ 76.3534, 12.751 ], [ 76.3423, 12.7628 ], [ 76.3496, 12.7709 ], [ 76.3496, 12.7856 ], [ 76.3344, 12.7877 ], [ 76.3296, 12.8028 ], [ 76.3318, 12.812 ], [ 76.3693, 12.8097 ], [ 76.3707, 12.8156 ], [ 76.3671, 12.8222 ], [ 76.3694, 12.8286 ], [ 76.3829, 12.8311 ], [ 76.3877, 12.8415 ], [ 76.3862, 12.8451 ], [ 76.3969, 12.8475 ], [ 76.4085, 12.844 ], [ 76.4072, 12.865 ], [ 76.4156, 12.8633 ], [ 76.4176, 12.8582 ], [ 76.4253, 12.8579 ], [ 76.4252, 12.8466 ], [ 76.4201, 12.8417 ], [ 76.4253, 12.825 ], [ 76.4459, 12.8233 ], [ 76.4461, 12.8189 ], [ 76.4579, 12.8054 ], [ 76.4536, 12.8017 ], [ 76.458, 12.8045 ], [ 76.4625, 12.803 ], [ 76.4643, 12.806 ], [ 76.4717, 12.798 ], [ 76.4576, 12.7888 ], [ 76.455, 12.781 ], [ 76.4722, 12.7718 ], [ 76.4781, 12.7728 ], [ 76.4782, 12.7806 ], [ 76.4896, 12.7858 ], [ 76.4929, 12.7672 ], [ 76.4997, 12.7758 ], [ 76.5, 12.7727 ], [ 76.5002, 12.7805 ], [ 76.4944, 12.7827 ], [ 76.4903, 12.7894 ], [ 76.4944, 12.8027 ], [ 76.4902, 12.8059 ], [ 76.5029, 12.822 ], [ 76.5183, 12.8263 ], [ 76.5205, 12.8414 ], [ 76.5355, 12.8443 ], [ 76.5466, 12.8402 ], [ 76.5494, 12.8421 ], [ 76.5482, 12.8383 ], [ 76.5535, 12.8452 ], [ 76.5777, 12.8469 ], [ 76.5986, 12.8316 ], [ 76.5878, 12.8238 ], [ 76.5861, 12.8185 ], [ 76.5926, 12.8157 ], [ 76.6014, 12.8214 ], [ 76.6047, 12.8044 ], [ 76.5982, 12.803 ], [ 76.5956, 12.7961 ], [ 76.5981, 12.7971 ], [ 76.6007, 12.7918 ], [ 76.6085, 12.7924 ], [ 76.6086, 12.7897 ], [ 76.5979, 12.7886 ], [ 76.5987, 12.7638 ], [ 76.6036, 12.7644 ], [ 76.6002, 12.7459 ], [ 76.5966, 12.7426 ], [ 76.5956, 12.7241 ], [ 76.6044, 12.7228 ], [ 76.6149, 12.6951 ], [ 76.6158, 12.678 ], [ 76.6097, 12.6748 ], [ 76.6135, 12.6459 ], [ 76.6001, 12.6518 ], [ 76.6042, 12.6423 ], [ 76.6058, 12.6172 ], [ 76.6019, 12.6081 ], [ 76.6007, 12.5768 ], [ 76.5919, 12.5765 ], [ 76.5912, 12.5898 ], [ 76.5906, 12.5761 ], [ 76.5831, 12.5749 ], [ 76.5827, 12.5782 ], [ 76.5721, 12.5817 ], [ 76.5655, 12.5771 ], [ 76.5661, 12.5715 ], [ 76.5823, 12.5691 ], [ 76.5856, 12.5538 ], [ 76.5643, 12.5678 ], [ 76.5552, 12.5493 ], [ 76.5462, 12.5496 ], [ 76.5414, 12.5338 ], [ 76.5485, 12.527 ], [ 76.5478, 12.5237 ], [ 76.5286, 12.5259 ], [ 76.5244, 12.5175 ], [ 76.5252, 12.5089 ], [ 76.5147, 12.5071 ], [ 76.5175, 12.507 ], [ 76.5157, 12.4934 ], [ 76.5196, 12.4927 ], [ 76.5194, 12.4875 ], [ 76.5136, 12.4805 ], [ 76.513, 12.4524 ], [ 76.5019, 12.4515 ], [ 76.4941, 12.465 ], [ 76.4936, 12.4764 ], [ 76.4875, 12.479 ], [ 76.4877, 12.4827 ], [ 76.4772, 12.4807 ], [ 76.4808, 12.4874 ], [ 76.4776, 12.4886 ], [ 76.4782, 12.493 ], [ 76.4865, 12.4926 ], [ 76.4754, 12.4934 ], [ 76.4705, 12.4847 ], [ 76.4703, 12.4768 ], [ 76.4609, 12.484 ], [ 76.4572, 12.4841 ], [ 76.4568, 12.4799 ], [ 76.4502, 12.4854 ], [ 76.4488, 12.4973 ], [ 76.4515, 12.5062 ], [ 76.4493, 12.5091 ], [ 76.4428, 12.5065 ], [ 76.4381, 12.511 ], [ 76.4355, 12.5216 ], [ 76.4228, 12.5326 ], [ 76.4276, 12.5418 ], [ 76.4148, 12.5486 ], [ 76.4113, 12.5579 ], [ 76.403, 12.553 ] ], [ [ 76.4115, 12.558 ], [ 76.4113, 12.5579 ], [ 76.4365, 12.5519 ], [ 76.4115, 12.558 ] ], [ [ 76.3947, 12.8146 ], [ 76.3985, 12.8002 ], [ 76.3949, 12.8151 ], [ 76.4063, 12.8131 ], [ 76.389, 12.8168 ], [ 76.3707, 12.8156 ], [ 76.3947, 12.8146 ] ], [ [ 76.4504, 12.7938 ], [ 76.4505, 12.793 ], [ 76.4536, 12.8017 ], [ 76.4504, 12.7938 ] ], [ [ 76.433, 12.5415 ], [ 76.4405, 12.5575 ], [ 76.4411, 12.5615 ], [ 76.4365, 12.5519 ], [ 76.433, 12.5415 ] ], [ [ 76.5748, 12.631 ], [ 76.5925, 12.6388 ], [ 76.5901, 12.6381 ], [ 76.5748, 12.631 ] ], [ [ 76.5718, 12.6194 ], [ 76.5731, 12.6183 ], [ 76.5748, 12.631 ], [ 76.5718, 12.6194 ] ], [ [ 76.5883, 12.6093 ], [ 76.5916, 12.6153 ], [ 76.5925, 12.6388 ], [ 76.5883, 12.6093 ] ], [ [ 76.4457, 12.771 ], [ 76.4459, 12.7716 ], [ 76.432, 12.7685 ], [ 76.4457, 12.771 ] ], [ [ 76.4252, 12.7717 ], [ 76.4264, 12.7712 ], [ 76.4245, 12.7781 ], [ 76.4252, 12.7717 ] ], [ [ 76.4078, 12.7698 ], [ 76.4162, 12.7703 ], [ 76.4252, 12.7717 ], [ 76.4078, 12.7698 ] ], [ [ 76.421, 12.7801 ], [ 76.4223, 12.7777 ], [ 76.4245, 12.7781 ], [ 76.421, 12.7801 ] ], [ [ 76.4186, 12.762 ], [ 76.4184, 12.7627 ], [ 76.4103, 12.7609 ], [ 76.4186, 12.762 ] ], [ [ 76.4081, 12.7676 ], [ 76.4111, 12.7551 ], [ 76.4103, 12.7609 ], [ 76.4081, 12.7676 ] ], [ [ 76.4282, 12.7393 ], [ 76.4254, 12.7395 ], [ 76.4356, 12.7343 ], [ 76.4282, 12.7393 ] ], [ [ 76.4221, 12.7219 ], [ 76.4223, 12.7208 ], [ 76.4254, 12.7395 ], [ 76.4221, 12.7219 ] ], [ [ 76.4351, 12.7312 ], [ 76.4354, 12.7311 ], [ 76.4356, 12.7343 ], [ 76.4351, 12.7312 ] ], [ [ 76.4313, 12.7204 ], [ 76.4448, 12.7216 ], [ 76.4324, 12.7217 ], [ 76.4313, 12.7204 ] ], [ [ 76.432, 12.7105 ], [ 76.4304, 12.7191 ], [ 76.4301, 12.7187 ], [ 76.432, 12.7105 ] ], [ [ 76.4232, 12.7193 ], [ 76.4234, 12.719 ], [ 76.4301, 12.7187 ], [ 76.4232, 12.7193 ] ], [ [ 76.4013, 12.7031 ], [ 76.4087, 12.6896 ], [ 76.4087, 12.6902 ], [ 76.4013, 12.7031 ] ], [ [ 76.4191, 12.6837 ], [ 76.4182, 12.6833 ], [ 76.4129, 12.6754 ], [ 76.4191, 12.6837 ] ], [ [ 76.4313, 12.6647 ], [ 76.4267, 12.6733 ], [ 76.4278, 12.6706 ], [ 76.4313, 12.6647 ] ], [ [ 76.4563, 12.6565 ], [ 76.456, 12.6628 ], [ 76.4561, 12.6506 ], [ 76.4563, 12.6565 ] ], [ [ 76.4558, 12.6462 ], [ 76.4559, 12.6467 ], [ 76.452, 12.6479 ], [ 76.4558, 12.6462 ] ], [ [ 76.4777, 12.6276 ], [ 76.4806, 12.6237 ], [ 76.4779, 12.6282 ], [ 76.4777, 12.6276 ] ], [ [ 76.4797, 12.6339 ], [ 76.4797, 12.6338 ], [ 76.4799, 12.6338 ], [ 76.4797, 12.6339 ] ], [ [ 76.487, 12.6336 ], [ 76.4865, 12.6334 ], [ 76.4898, 12.6296 ], [ 76.487, 12.6336 ] ], [ [ 76.4822, 12.6154 ], [ 76.4914, 12.6248 ], [ 76.4868, 12.6228 ], [ 76.4898, 12.6296 ], [ 76.4822, 12.6154 ] ], [ [ 76.5015, 12.6313 ], [ 76.5024, 12.6241 ], [ 76.5023, 12.6262 ], [ 76.5015, 12.6313 ] ], [ [ 76.5064, 12.6398 ], [ 76.5104, 12.6238 ], [ 76.5107, 12.6234 ], [ 76.5064, 12.6398 ] ], [ [ 76.5089, 12.6421 ], [ 76.5086, 12.6421 ], [ 76.5064, 12.6398 ], [ 76.5089, 12.6421 ] ], [ [ 76.5171, 12.6213 ], [ 76.5192, 12.6215 ], [ 76.5127, 12.6212 ], [ 76.5171, 12.6213 ] ], [ [ 76.5116, 12.6027 ], [ 76.5128, 12.6211 ], [ 76.5115, 12.6041 ], [ 76.5116, 12.6027 ] ], [ [ 76.512, 12.6007 ], [ 76.5153, 12.6002 ], [ 76.5117, 12.6023 ], [ 76.5122, 12.598 ], [ 76.512, 12.6007 ] ], [ [ 76.5224, 12.5984 ], [ 76.5165, 12.5953 ], [ 76.5222, 12.5973 ], [ 76.5224, 12.5984 ] ], [ [ 76.499, 12.5672 ], [ 76.4918, 12.5701 ], [ 76.4875, 12.5697 ], [ 76.499, 12.5672 ] ], [ [ 76.5058, 12.5638 ], [ 76.5055, 12.5637 ], [ 76.5057, 12.5611 ], [ 76.5058, 12.5638 ] ], [ [ 76.4959, 12.5342 ], [ 76.5037, 12.5244 ], [ 76.4976, 12.5336 ], [ 76.4959, 12.5342 ] ], [ [ 76.5139, 12.5089 ], [ 76.5103, 12.5173 ], [ 76.5134, 12.5059 ], [ 76.5139, 12.5089 ] ], [ [ 76.3959, 12.6854 ], [ 76.3958, 12.6866 ], [ 76.4084, 12.6869 ], [ 76.3911, 12.6866 ], [ 76.3885, 12.6849 ], [ 76.3959, 12.6854 ] ], [ [ 76.3928, 12.6756 ], [ 76.3974, 12.6755 ], [ 76.3924, 12.6763 ], [ 76.3928, 12.6756 ] ], [ [ 76.3813, 12.7916 ], [ 76.3823, 12.7917 ], [ 76.3767, 12.795 ], [ 76.3813, 12.7916 ] ], [ [ 76.4067, 12.7878 ], [ 76.4077, 12.771 ], [ 76.4079, 12.7754 ], [ 76.4067, 12.7878 ] ], [ [ 76.4452, 12.6041 ], [ 76.4366, 12.6056 ], [ 76.4369, 12.6046 ], [ 76.4452, 12.6041 ] ], [ [ 76.4359, 12.6082 ], [ 76.4349, 12.6144 ], [ 76.4356, 12.6096 ], [ 76.4359, 12.6082 ] ], [ [ 76.4455, 12.6116 ], [ 76.4455, 12.6118 ], [ 76.4349, 12.6144 ], [ 76.4455, 12.6116 ] ], [ [ 76.4161, 12.5882 ], [ 76.4175, 12.5875 ], [ 76.4191, 12.5891 ], [ 76.4161, 12.5882 ] ], [ [ 76.4242, 12.5906 ], [ 76.4314, 12.5873 ], [ 76.4307, 12.5884 ], [ 76.4242, 12.5906 ] ], [ [ 76.4335, 12.5843 ], [ 76.4339, 12.5822 ], [ 76.4358, 12.5808 ], [ 76.4335, 12.5843 ] ], [ [ 76.4389, 12.5723 ], [ 76.4378, 12.5674 ], [ 76.4367, 12.5617 ], [ 76.4389, 12.5723 ] ], [ [ 76.4239, 12.5697 ], [ 76.4334, 12.5658 ], [ 76.4378, 12.5674 ], [ 76.4239, 12.5697 ] ], [ [ 76.4239, 12.5766 ], [ 76.4237, 12.5694 ], [ 76.4239, 12.5697 ], [ 76.4239, 12.5766 ] ], [ [ 76.4204, 12.5782 ], [ 76.4208, 12.5768 ], [ 76.4239, 12.5766 ], [ 76.4204, 12.5782 ] ], [ [ 76.3849, 12.6826 ], [ 76.3837, 12.6777 ], [ 76.3872, 12.6841 ], [ 76.3849, 12.6826 ] ], [ [ 76.4351, 12.6327 ], [ 76.4377, 12.6368 ], [ 76.4353, 12.6336 ], [ 76.4308, 12.6325 ], [ 76.4351, 12.6327 ] ], [ [ 76.4486, 12.6208 ], [ 76.4465, 12.6142 ], [ 76.4489, 12.6204 ], [ 76.4486, 12.6208 ] ], [ [ 76.3956, 12.6332 ], [ 76.3939, 12.627 ], [ 76.3946, 12.6261 ], [ 76.3956, 12.6332 ] ], [ [ 76.3947, 12.6259 ], [ 76.3953, 12.625 ], [ 76.3969, 12.6254 ], [ 76.3947, 12.6259 ] ], [ [ 76.3985, 12.625 ], [ 76.3984, 12.6239 ], [ 76.4008, 12.6244 ], [ 76.3985, 12.625 ] ], [ [ 76.4023, 12.6291 ], [ 76.4012, 12.6329 ], [ 76.4008, 12.6244 ], [ 76.4023, 12.6291 ] ], [ [ 76.4097, 12.6338 ], [ 76.4013, 12.6329 ], [ 76.4148, 12.6311 ], [ 76.4097, 12.6338 ] ], [ [ 76.4091, 12.6242 ], [ 76.411, 12.6241 ], [ 76.411, 12.6247 ], [ 76.4091, 12.6242 ] ], [ [ 76.4069, 12.6235 ], [ 76.4077, 12.6154 ], [ 76.4072, 12.6236 ], [ 76.4069, 12.6235 ] ], [ [ 76.4012, 12.6091 ], [ 76.4012, 12.6085 ], [ 76.4077, 12.6154 ], [ 76.4012, 12.6091 ] ], [ [ 76.4245, 12.6444 ], [ 76.4171, 12.6412 ], [ 76.4172, 12.6408 ], [ 76.4245, 12.6444 ] ], [ [ 76.3986, 12.6554 ], [ 76.3999, 12.6505 ], [ 76.3989, 12.6555 ], [ 76.3986, 12.6554 ] ], [ [ 76.4073, 12.659 ], [ 76.4038, 12.6575 ], [ 76.4071, 12.6586 ], [ 76.4073, 12.659 ] ], [ [ 76.4156, 12.6727 ], [ 76.4118, 12.666 ], [ 76.4138, 12.6672 ], [ 76.4156, 12.6727 ] ], [ [ 76.3931, 12.7057 ], [ 76.3856, 12.7088 ], [ 76.3844, 12.7085 ], [ 76.3931, 12.7057 ] ], [ [ 76.3813, 12.6954 ], [ 76.3962, 12.6934 ], [ 76.3874, 12.695 ], [ 76.3813, 12.6954 ] ], [ [ 76.3984, 12.719 ], [ 76.3986, 12.7074 ], [ 76.3992, 12.7064 ], [ 76.3984, 12.719 ] ], [ [ 76.41, 12.7252 ], [ 76.4101, 12.7255 ], [ 76.3984, 12.719 ], [ 76.41, 12.7252 ] ], [ [ 76.4188, 12.7234 ], [ 76.4125, 12.7208 ], [ 76.4199, 12.7229 ], [ 76.4188, 12.7234 ] ], [ [ 76.3675, 12.7376 ], [ 76.368, 12.7337 ], [ 76.3689, 12.7387 ], [ 76.3675, 12.7376 ] ], [ [ 76.3752, 12.7476 ], [ 76.3745, 12.7449 ], [ 76.376, 12.746 ], [ 76.3752, 12.7476 ] ], [ [ 76.4084, 12.7924 ], [ 76.408, 12.7915 ], [ 76.4146, 12.7958 ], [ 76.4084, 12.7924 ] ], [ [ 76.4202, 12.7916 ], [ 76.4197, 12.7918 ], [ 76.4206, 12.7906 ], [ 76.4202, 12.7916 ] ], [ [ 76.4207, 12.7806 ], [ 76.4221, 12.7872 ], [ 76.4206, 12.7905 ], [ 76.4207, 12.7806 ] ], [ [ 76.4079, 12.8044 ], [ 76.4062, 12.8044 ], [ 76.4057, 12.8042 ], [ 76.4079, 12.8044 ] ], [ [ 76.4971, 12.4808 ], [ 76.4973, 12.4998 ], [ 76.4963, 12.4867 ], [ 76.4971, 12.4808 ] ], [ [ 76.4987, 12.5083 ], [ 76.4979, 12.5085 ], [ 76.4979, 12.5076 ], [ 76.4987, 12.5083 ] ], [ [ 76.4524, 12.5493 ], [ 76.4533, 12.5497 ], [ 76.4488, 12.5527 ], [ 76.4524, 12.5493 ] ], [ [ 76.4587, 12.5559 ], [ 76.4552, 12.5506 ], [ 76.4566, 12.5512 ], [ 76.4587, 12.5559 ] ], [ [ 76.4924, 12.5356 ], [ 76.4896, 12.5367 ], [ 76.499, 12.5417 ], [ 76.4886, 12.5367 ], [ 76.4924, 12.5356 ] ], [ [ 76.4515, 12.5116 ], [ 76.4542, 12.5145 ], [ 76.4531, 12.5155 ], [ 76.4515, 12.5116 ] ], [ [ 76.4577, 12.5404 ], [ 76.458, 12.5433 ], [ 76.4572, 12.5437 ], [ 76.4577, 12.5404 ] ], [ [ 76.4542, 12.5448 ], [ 76.4531, 12.5452 ], [ 76.4532, 12.545 ], [ 76.4542, 12.5448 ] ], [ [ 76.459, 12.578 ], [ 76.459, 12.5782 ], [ 76.4525, 12.5681 ], [ 76.459, 12.578 ] ], [ [ 76.4621, 12.5766 ], [ 76.4664, 12.5747 ], [ 76.4648, 12.5766 ], [ 76.4621, 12.5766 ] ], [ [ 76.4978, 12.6087 ], [ 76.4897, 12.6095 ], [ 76.4899, 12.6121 ], [ 76.4895, 12.6088 ], [ 76.4978, 12.6087 ] ], [ [ 76.4581, 12.5815 ], [ 76.4591, 12.5801 ], [ 76.4592, 12.5815 ], [ 76.4581, 12.5815 ] ], [ [ 76.511, 12.5635 ], [ 76.5124, 12.564 ], [ 76.5022, 12.5682 ], [ 76.511, 12.5635 ] ], [ [ 76.5044, 12.5735 ], [ 76.5033, 12.5739 ], [ 76.5022, 12.5682 ], [ 76.5044, 12.5735 ] ], [ [ 76.5148, 12.5648 ], [ 76.5154, 12.5705 ], [ 76.5132, 12.5643 ], [ 76.5148, 12.5648 ] ], [ [ 76.5239, 12.7582 ], [ 76.5268, 12.7714 ], [ 76.5245, 12.7636 ], [ 76.5167, 12.7483 ], [ 76.5239, 12.7582 ] ], [ [ 76.5103, 12.7492 ], [ 76.5108, 12.7479 ], [ 76.5158, 12.7466 ], [ 76.5103, 12.7492 ] ], [ [ 76.5169, 12.741 ], [ 76.5162, 12.7473 ], [ 76.5158, 12.7466 ], [ 76.5169, 12.741 ] ], [ [ 76.5234, 12.6803 ], [ 76.5123, 12.6887 ], [ 76.5234, 12.679 ], [ 76.5234, 12.6803 ] ], [ [ 76.5324, 12.6636 ], [ 76.53, 12.6685 ], [ 76.53, 12.6618 ], [ 76.5324, 12.6636 ] ], [ [ 76.5274, 12.6576 ], [ 76.5291, 12.6602 ], [ 76.5198, 12.6541 ], [ 76.5274, 12.6576 ] ], [ [ 76.517, 12.6547 ], [ 76.5159, 12.6557 ], [ 76.5161, 12.6549 ], [ 76.517, 12.6547 ] ], [ [ 76.5139, 12.6574 ], [ 76.5135, 12.6579 ], [ 76.51, 12.6574 ], [ 76.5139, 12.6574 ] ], [ [ 76.5023, 12.668 ], [ 76.499, 12.6713 ], [ 76.499, 12.6778 ], [ 76.4924, 12.6778 ], [ 76.4889, 12.674 ], [ 76.4845, 12.6796 ], [ 76.4849, 12.6772 ], [ 76.4636, 12.6711 ], [ 76.4752, 12.6664 ], [ 76.4759, 12.6535 ], [ 76.4818, 12.6528 ], [ 76.4804, 12.6443 ], [ 76.4755, 12.6468 ], [ 76.4743, 12.6398 ], [ 76.4832, 12.6376 ], [ 76.4889, 12.6525 ], [ 76.4954, 12.6519 ], [ 76.4967, 12.6427 ], [ 76.4951, 12.6556 ], [ 76.5023, 12.668 ] ], [ [ 76.4966, 12.6417 ], [ 76.4933, 12.6372 ], [ 76.4965, 12.6406 ], [ 76.4966, 12.6417 ] ], [ [ 76.5085, 12.7208 ], [ 76.5123, 12.7209 ], [ 76.5153, 12.7223 ], [ 76.5085, 12.7208 ] ], [ [ 76.4571, 12.7469 ], [ 76.4601, 12.7358 ], [ 76.4626, 12.7389 ], [ 76.4601, 12.7373 ], [ 76.4571, 12.7469 ] ], [ [ 76.4678, 12.7457 ], [ 76.4669, 12.7459 ], [ 76.4664, 12.7439 ], [ 76.4678, 12.7457 ] ], [ [ 76.4828, 12.7159 ], [ 76.4828, 12.7158 ], [ 76.4852, 12.7182 ], [ 76.4828, 12.7159 ] ], [ [ 76.4393, 12.6781 ], [ 76.4391, 12.6781 ], [ 76.4394, 12.6779 ], [ 76.4393, 12.6781 ] ], [ [ 76.4506, 12.7024 ], [ 76.4509, 12.7013 ], [ 76.4514, 12.701 ], [ 76.4506, 12.7024 ] ], [ [ 76.4617, 12.7331 ], [ 76.4607, 12.7338 ], [ 76.4626, 12.7269 ], [ 76.4617, 12.7331 ] ], [ [ 76.4696, 12.7161 ], [ 76.4758, 12.7186 ], [ 76.4664, 12.7184 ], [ 76.4696, 12.7161 ] ], [ [ 76.4995, 12.7626 ], [ 76.5004, 12.7628 ], [ 76.5003, 12.7638 ], [ 76.4995, 12.7626 ] ], [ [ 76.5341, 12.609 ], [ 76.5338, 12.6094 ], [ 76.5337, 12.609 ], [ 76.5341, 12.609 ] ], [ [ 76.5409, 12.5924 ], [ 76.5427, 12.6024 ], [ 76.5398, 12.591 ], [ 76.5555, 12.5925 ], [ 76.5409, 12.5924 ] ], [ [ 76.5356, 12.6647 ], [ 76.5361, 12.672 ], [ 76.5349, 12.6645 ], [ 76.5356, 12.6647 ] ], [ [ 76.5617, 12.6903 ], [ 76.5602, 12.6955 ], [ 76.5623, 12.6945 ], [ 76.5562, 12.7015 ], [ 76.5617, 12.6903 ] ], [ [ 76.5691, 12.6963 ], [ 76.5732, 12.6995 ], [ 76.5698, 12.701 ], [ 76.5716, 12.6993 ], [ 76.5691, 12.6963 ] ], [ [ 76.573, 12.7214 ], [ 76.5745, 12.7215 ], [ 76.588, 12.7278 ], [ 76.573, 12.7214 ] ], [ [ 76.5633, 12.619 ], [ 76.5533, 12.6227 ], [ 76.5629, 12.6177 ], [ 76.5633, 12.619 ] ], [ [ 76.5622, 12.614 ], [ 76.562, 12.6144 ], [ 76.5576, 12.6093 ], [ 76.5622, 12.614 ] ], [ [ 76.5698, 12.6058 ], [ 76.5629, 12.6071 ], [ 76.565, 12.6063 ], [ 76.5698, 12.6058 ] ], [ [ 76.5305, 12.6412 ], [ 76.5316, 12.6387 ], [ 76.5334, 12.6366 ], [ 76.5305, 12.6412 ] ], [ [ 76.5396, 12.6541 ], [ 76.5432, 12.6383 ], [ 76.546, 12.6285 ], [ 76.5396, 12.6541 ] ], [ [ 76.5363, 12.623 ], [ 76.5364, 12.6231 ], [ 76.5358, 12.623 ], [ 76.5363, 12.623 ] ], [ [ 76.5664, 12.6419 ], [ 76.5686, 12.6405 ], [ 76.5771, 12.6409 ], [ 76.5664, 12.6419 ] ], [ [ 76.5859, 12.6636 ], [ 76.5875, 12.6557 ], [ 76.5877, 12.6555 ], [ 76.5859, 12.6636 ] ], [ [ 76.5649, 12.6815 ], [ 76.5656, 12.6818 ], [ 76.5622, 12.6819 ], [ 76.5649, 12.6815 ] ], [ [ 76.5702, 12.684 ], [ 76.5731, 12.6884 ], [ 76.5659, 12.682 ], [ 76.5702, 12.684 ] ], [ [ 76.5543, 12.7553 ], [ 76.5513, 12.7564 ], [ 76.5547, 12.7526 ], [ 76.5543, 12.7553 ] ], [ [ 76.5378, 12.7163 ], [ 76.556, 12.7204 ], [ 76.5537, 12.7203 ], [ 76.5378, 12.7163 ] ], [ [ 76.5498, 12.7279 ], [ 76.551, 12.7284 ], [ 76.5496, 12.729 ], [ 76.5498, 12.7279 ] ], [ [ 76.5542, 12.7296 ], [ 76.5533, 12.7297 ], [ 76.5532, 12.7292 ], [ 76.5542, 12.7296 ] ], [ [ 76.5613, 12.807 ], [ 76.5606, 12.8091 ], [ 76.5611, 12.807 ], [ 76.5613, 12.807 ] ], [ [ 76.5892, 12.7999 ], [ 76.5925, 12.8047 ], [ 76.5913, 12.805 ], [ 76.5892, 12.7999 ] ], [ [ 76.5248, 12.784 ], [ 76.5464, 12.7879 ], [ 76.5461, 12.7885 ], [ 76.5248, 12.784 ] ], [ [ 76.5545, 12.8079 ], [ 76.5542, 12.8107 ], [ 76.5527, 12.8059 ], [ 76.5545, 12.8079 ] ], [ [ 76.5913, 12.7984 ], [ 76.5931, 12.7951 ], [ 76.5947, 12.7957 ], [ 76.5913, 12.7984 ] ], [ [ 76.5541, 12.8121 ], [ 76.554, 12.813 ], [ 76.5442, 12.8144 ], [ 76.5541, 12.8121 ] ], [ [ 76.5427, 12.8206 ], [ 76.5429, 12.8087 ], [ 76.5442, 12.8144 ], [ 76.5427, 12.8206 ] ] ] } },
{ "type": "Feature", "properties": { "taluk": "Maddur" }, "geometry": { "type": "Polygon", "coordinates": [ [ [ 76.9487, 12.4716 ], [ 76.9554, 12.4707 ], [ 76.9542, 12.4958 ], [ 76.9804, 12.5066 ], [ 76.9761, 12.5095 ], [ 76.9736, 12.5224 ], [ 76.9858, 12.5233 ], [ 76.9962, 12.5161 ], [ 76.9974, 12.5116 ], [ 76.9975, 12.5203 ], [ 77.013, 12.5259 ], [ 77.0132, 12.5343 ], [ 77.0173, 12.5319 ], [ 77.0112, 12.5369 ], [ 76.9995, 12.5379 ], [ 76.9971, 12.556 ], [ 76.9906, 12.5559 ], [ 76.9868, 12.5811 ], [ 76.9968, 12.5849 ], [ 76.9931, 12.5974 ], [ 76.9853, 12.5976 ], [ 76.9874, 12.6011 ], [ 76.9837, 12.6035 ], [ 76.9868, 12.6112 ], [ 76.9826, 12.6255 ], [ 76.977, 12.6338 ], [ 76.9802, 12.6272 ], [ 76.9695, 12.6266 ], [ 76.9581, 12.6606 ], [ 76.945, 12.6664 ], [ 76.9307, 12.6575 ], [ 76.9193, 12.6741 ], [ 76.9217, 12.6908 ], [ 76.9438, 12.6896 ], [ 76.9295, 12.6909 ], [ 76.9373, 12.703 ], [ 76.946, 12.702 ], [ 76.9461, 12.7067 ], [ 76.9304, 12.7102 ], [ 76.9251, 12.715 ], [ 76.9144, 12.7156 ], [ 76.9114, 12.721 ], [ 76.897, 12.7303 ], [ 76.9115, 12.7477 ], [ 76.9104, 12.7551 ], [ 76.9099, 12.7696 ], [ 76.9142, 12.7707 ], [ 76.9101, 12.7838 ], [ 76.9112, 12.7931 ], [ 76.9274, 12.7995 ], [ 76.9344, 12.7972 ], [ 76.9337, 12.8005 ], [ 76.9413, 12.8056 ], [ 76.9505, 12.8016 ], [ 76.9731, 12.8035 ], [ 76.9756, 12.791 ], [ 76.9834, 12.793 ], [ 76.999, 12.7759 ], [ 76.9875, 12.7675 ], [ 77.0096, 12.7824 ], [ 77.0064, 12.7727 ], [ 77.0092, 12.7643 ], [ 77.0252, 12.7631 ], [ 77.0276, 12.7507 ], [ 77.0259, 12.7667 ], [ 77.0345, 12.7688 ], [ 77.0436, 12.7781 ], [ 77.0489, 12.7474 ], [ 77.0674, 12.7583 ], [ 77.0767, 12.7455 ], [ 77.0805, 12.7464 ], [ 77.0836, 12.7428 ], [ 77.0765, 12.7126 ], [ 77.0729, 12.7125 ], [ 77.0752, 12.7084 ], [ 77.0728, 12.7042 ], [ 77.0757, 12.6842 ], [ 77.0737, 12.6807 ], [ 77.0803, 12.6762 ], [ 77.0975, 12.6755 ], [ 77.1004, 12.6305 ], [ 77.1047, 12.6277 ], [ 77.1167, 12.6287 ], [ 77.1224, 12.6237 ], [ 77.1225, 12.6195 ], [ 77.111, 12.6162 ], [ 77.1081, 12.6086 ], [ 77.11, 12.5967 ], [ 77.1142, 12.5965 ], [ 77.1169, 12.582 ], [ 77.1285, 12.5699 ], [ 77.1278, 12.5533 ], [ 77.1201, 12.5556 ], [ 77.1131, 12.5534 ], [ 77.1145, 12.543 ], [ 77.1206, 12.5411 ], [ 77.1265, 12.5336 ], [ 77.125, 12.5233 ], [ 77.1317, 12.5186 ], [ 77.1306, 12.4977 ], [ 77.1239, 12.4844 ], [ 77.1254, 12.4802 ], [ 77.1318, 12.4801 ], [ 77.1355, 12.4698 ], [ 77.1326, 12.4696 ], [ 77.1301, 12.4551 ], [ 77.1255, 12.4515 ], [ 77.1249, 12.4406 ], [ 77.1034, 12.4366 ], [ 77.0763, 12.4413 ], [ 77.0717, 12.4514 ], [ 77.0564, 12.4493 ], [ 77.0553, 12.4709 ], [ 77.0562, 12.4485 ], [ 77.0335, 12.4436 ], [ 77.0327, 12.4463 ], [ 77.0094, 12.4444 ], [ 76.9845, 12.4383 ], [ 76.9863, 12.4224 ], [ 76.982, 12.4169 ], [ 76.9667, 12.4178 ], [ 76.9719, 12.4318 ], [ 76.9787, 12.4648 ], [ 76.9738, 12.442 ], [ 76.9477, 12.4468 ], [ 76.95, 12.4585 ], [ 76.9422, 12.4676 ], [ 76.9487, 12.4716 ] ], [ [ 76.9532, 12.6929 ], [ 76.9467, 12.6929 ], [ 76.9438, 12.6896 ], [ 76.9532, 12.6929 ] ], [ [ 76.9503, 12.698 ], [ 76.951, 12.6989 ], [ 76.946, 12.702 ], [ 76.9503, 12.698 ] ], [ [ 76.9463, 12.7581 ], [ 76.9375, 12.7576 ], [ 76.9104, 12.7551 ], [ 76.9463, 12.7581 ] ], [ [ 77.062, 12.7039 ], [ 77.0626, 12.704 ], [ 77.0729, 12.7125 ], [ 77.062, 12.7039 ] ], [ [ 76.9842, 12.4647 ], [ 76.9786, 12.4649 ], [ 76.9787, 12.4648 ], [ 76.9842, 12.4647 ] ], [ [ 77.0188, 12.5863 ], [ 77.0148, 12.5829 ], [ 77.0179, 12.5852 ], [ 77.0188, 12.5863 ] ], [ [ 77.0208, 12.5691 ], [ 77.0207, 12.5772 ], [ 77.0179, 12.5852 ], [ 77.0208, 12.5691 ] ], [ [ 77.0162, 12.5656 ], [ 77.0241, 12.5704 ], [ 77.0208, 12.5691 ], [ 77.0162, 12.5656 ] ], [ [ 77.0298, 12.5658 ], [ 77.0297, 12.5675 ], [ 77.0241, 12.5704 ], [ 77.0298, 12.5658 ] ], [ [ 77.044, 12.5749 ], [ 77.0444, 12.5795 ], [ 77.0457, 12.5741 ], [ 77.0431, 12.5707 ], [ 77.0533, 12.5735 ], [ 77.0563, 12.5716 ], [ 77.0551, 12.5788 ], [ 77.0609, 12.5793 ], [ 77.0619, 12.5871 ], [ 77.0542, 12.5958 ], [ 77.0569, 12.6029 ], [ 77.0528, 12.6135 ], [ 77.0514, 12.6102 ], [ 77.0446, 12.6107 ], [ 77.0452, 12.6067 ], [ 77.0423, 12.6062 ], [ 77.0459, 12.6007 ], [ 77.0483, 12.6029 ], [ 77.0463, 12.5978 ], [ 77.0343, 12.5978 ], [ 77.0312, 12.6016 ], [ 77.0244, 12.5987 ], [ 77.0237, 12.6021 ], [ 77.0148, 12.6003 ], [ 77.0214, 12.5895 ], [ 77.0242, 12.593 ], [ 77.0304, 12.5909 ], [ 77.0326, 12.5848 ], [ 77.0276, 12.5815 ], [ 77.0379, 12.573 ], [ 77.044, 12.5749 ] ], [ [ 77.0637, 12.5712 ], [ 77.0636, 12.5714 ], [ 77.0613, 12.5596 ], [ 77.0637, 12.5712 ] ], [ [ 77.0489, 12.5335 ], [ 77.0705, 12.5325 ], [ 77.064, 12.5355 ], [ 77.0489, 12.5335 ] ], [ [ 77.0249, 12.4846 ], [ 77.0228, 12.4866 ], [ 77.0228, 12.4847 ], [ 77.0249, 12.4846 ] ], [ [ 77.0302, 12.4689 ], [ 77.0224, 12.4689 ], [ 77.0188, 12.4669 ], [ 77.0302, 12.4689 ] ], [ [ 76.9773, 12.4805 ], [ 76.9764, 12.474 ], [ 76.9779, 12.4678 ], [ 76.9773, 12.4805 ] ], [ [ 77.0042, 12.5642 ], [ 77.0011, 12.5639 ], [ 77.0037, 12.5635 ], [ 77.0042, 12.5642 ] ], [ [ 77.0453, 12.5632 ], [ 77.0486, 12.5663 ], [ 77.0484, 12.5669 ], [ 77.0453, 12.5632 ] ], [ [ 76.9839, 12.7628 ], [ 76.9836, 12.7645 ], [ 76.9829, 12.764 ], [ 76.9839, 12.7628 ] ], [ [ 76.951, 12.7494 ], [ 76.9521, 12.744 ], [ 76.9521, 12.7474 ], [ 76.9517, 12.7474 ], [ 76.951, 12.7494 ] ], [ [ 77.0156, 12.7052 ], [ 77.0142, 12.7055 ], [ 77.0088, 12.6969 ], [ 77.0156, 12.7052 ] ], [ [ 76.9779, 12.6948 ], [ 76.9775, 12.688 ], [ 76.9778, 12.6778 ], [ 76.9779, 12.6948 ] ], [ [ 76.9917, 12.6959 ], [ 76.9804, 12.6953 ], [ 76.9779, 12.6948 ], [ 76.9917, 12.6959 ] ], [ [ 76.9624, 12.671 ], [ 76.9622, 12.6706 ], [ 76.9674, 12.6679 ], [ 76.9624, 12.671 ] ], [ [ 76.9823, 12.7191 ], [ 76.9842, 12.717 ], [ 76.9829, 12.7191 ], [ 76.9823, 12.7191 ] ], [ [ 76.9466, 12.7094 ], [ 76.9475, 12.7096 ], [ 76.9467, 12.7099 ], [ 76.9466, 12.7094 ] ], [ [ 76.949, 12.71 ], [ 76.9493, 12.7101 ], [ 76.947, 12.7263 ], [ 76.949, 12.71 ] ], [ [ 76.9657, 12.7301 ], [ 76.97, 12.7296 ], [ 76.952, 12.7329 ], [ 76.9657, 12.7301 ] ], [ [ 76.9488, 12.7554 ], [ 76.9479, 12.7578 ], [ 76.947, 12.758 ], [ 76.9488, 12.7554 ] ], [ [ 77.0533, 12.7251 ], [ 77.0463, 12.722 ], [ 77.0428, 12.7166 ], [ 77.0533, 12.7251 ] ], [ [ 77.0532, 12.7154 ], [ 77.0533, 12.7152 ], [ 77.056, 12.7144 ], [ 77.0532, 12.7154 ] ], [ [ 77.0577, 12.6867 ], [ 77.0586, 12.6788 ], [ 77.0587, 12.6791 ], [ 77.0577, 12.6867 ] ], [ [ 77.0492, 12.6728 ], [ 77.0435, 12.674 ], [ 77.0429, 12.6727 ], [ 77.0492, 12.6728 ] ], [ [ 77.042, 12.6709 ], [ 77.0403, 12.6672 ], [ 77.0412, 12.6619 ], [ 77.042, 12.6709 ] ], [ [ 77.0406, 12.6522 ], [ 77.0403, 12.651 ], [ 77.0438, 12.6343 ], [ 77.0406, 12.6522 ] ], [ [ 77.0412, 12.627 ], [ 77.041, 12.6263 ], [ 77.0419, 12.623 ], [ 77.0412, 12.627 ] ], [ [ 77.0434, 12.6813 ], [ 77.0426, 12.6827 ], [ 77.0301, 12.6856 ], [ 77.0434, 12.6813 ] ], [ [ 77.0445, 12.6784 ], [ 77.0448, 12.6792 ], [ 77.0443, 12.68 ], [ 77.0445, 12.6784 ] ], [ [ 76.9918, 12.6133 ], [ 76.9896, 12.6121 ], [ 76.9975, 12.6136 ], [ 76.9918, 12.6133 ] ], [ [ 77.0015, 12.6149 ], [ 77.0015, 12.6148 ], [ 77.0075, 12.6174 ], [ 77.0015, 12.6149 ] ], [ [ 76.9994, 12.5895 ], [ 76.9994, 12.5894 ], [ 77.0128, 12.5925 ], [ 76.9994, 12.5895 ] ], [ [ 77.0392, 12.7102 ], [ 77.0404, 12.7094 ], [ 77.0407, 12.7102 ], [ 77.0392, 12.7102 ] ], [ [ 77.0421, 12.7152 ], [ 77.0424, 12.7162 ], [ 77.0422, 12.7161 ], [ 77.0421, 12.7152 ] ], [ [ 77.0614, 12.4949 ], [ 77.0675, 12.4869 ], [ 77.0677, 12.4869 ], [ 77.0614, 12.4949 ] ], [ [ 77.0757, 12.4867 ], [ 77.0762, 12.4867 ], [ 77.0827, 12.4916 ], [ 77.0757, 12.4867 ] ], [ [ 77.1013, 12.4835 ], [ 77.0922, 12.4877 ], [ 77.0827, 12.4916 ], [ 77.1013, 12.4835 ] ], [ [ 77.1018, 12.4833 ], [ 77.1024, 12.483 ], [ 77.105, 12.4943 ], [ 77.1018, 12.4833 ] ], [ [ 77.1071, 12.4633 ], [ 77.1032, 12.4583 ], [ 77.1122, 12.4663 ], [ 77.1071, 12.4633 ] ], [ [ 77.0803, 12.6184 ], [ 77.0795, 12.6184 ], [ 77.0763, 12.6162 ], [ 77.0803, 12.6184 ] ], [ [ 77.0849, 12.5962 ], [ 77.0854, 12.5959 ], [ 77.0838, 12.607 ], [ 77.0849, 12.5962 ] ], [ [ 77.07, 12.5233 ], [ 77.07, 12.523 ], [ 77.0731, 12.5198 ], [ 77.07, 12.5233 ] ], [ [ 77.0773, 12.515 ], [ 77.0804, 12.5013 ], [ 77.0778, 12.5144 ], [ 77.0773, 12.515 ] ], [ [ 77.0817, 12.6485 ], [ 77.0694, 12.6479 ], [ 77.0664, 12.6461 ], [ 77.0817, 12.6485 ] ], [ [ 77.0637, 12.6427 ], [ 77.0633, 12.6443 ], [ 77.0626, 12.6439 ], [ 77.0637, 12.6427 ] ], [ [ 77.0658, 12.6314 ], [ 77.0643, 12.6392 ], [ 77.0638, 12.6379 ], [ 77.0658, 12.6314 ] ], [ [ 77.0674, 12.6234 ], [ 77.0601, 12.6201 ], [ 77.0857, 12.6219 ], [ 77.0679, 12.6208 ], [ 77.0674, 12.6234 ] ], [ [ 77.06, 12.62 ], [ 77.0599, 12.6199 ], [ 77.0603, 12.6135 ], [ 77.06, 12.62 ] ] ] } },
{ "type": "Feature", "properties": { "taluk": "Malavalli" }, "geometry": { "type": "MultiPolygon", "coordinates": [ [ [ [ 76.9896, 12.2561 ], [ 76.9907, 12.287 ], [ 76.9862, 12.2851 ], [ 76.9727, 12.2892 ], [ 76.9718, 12.2939 ], [ 76.977, 12.3071 ], [ 76.993, 12.3006 ], [ 76.9979, 12.313 ], [ 76.9914, 12.3136 ], [ 76.9872, 12.3194 ], [ 76.9866, 12.3334 ], [ 76.9817, 12.327 ], [ 76.9768, 12.3277 ], [ 76.9769, 12.3528 ], [ 76.9597, 12.3549 ], [ 76.959, 12.3615 ], [ 76.9591, 12.3528 ], [ 76.9548, 12.3536 ], [ 76.9595, 12.3365 ], [ 76.9577, 12.3269 ], [ 76.948, 12.3304 ], [ 76.9219, 12.3217 ], [ 76.9276, 12.3257 ], [ 76.9319, 12.3382 ], [ 76.9253, 12.3441 ], [ 76.9242, 12.3531 ], [ 76.939, 12.3526 ], [ 76.9388, 12.355 ], [ 76.9432, 12.3556 ], [ 76.9383, 12.3565 ], [ 76.9371, 12.3844 ], [ 76.9483, 12.3875 ], [ 76.9364, 12.3855 ], [ 76.9376, 12.4006 ], [ 76.9243, 12.4225 ], [ 76.9274, 12.4236 ], [ 76.9278, 12.4294 ], [ 76.9226, 12.4449 ], [ 76.9281, 12.4507 ], [ 76.9385, 12.4515 ], [ 76.9403, 12.4483 ], [ 76.9738, 12.442 ], [ 76.9667, 12.4185 ], [ 76.9647, 12.421 ], [ 76.9666, 12.4171 ], [ 76.9802, 12.4168 ], [ 76.9863, 12.4224 ], [ 76.9845, 12.4383 ], [ 77.0099, 12.4445 ], [ 77.0329, 12.4463 ], [ 77.0325, 12.4439 ], [ 77.0364, 12.4434 ], [ 77.0698, 12.4515 ], [ 77.074, 12.4497 ], [ 77.0763, 12.4413 ], [ 77.0739, 12.4406 ], [ 77.1015, 12.4387 ], [ 77.1039, 12.4365 ], [ 77.1166, 12.4373 ], [ 77.118, 12.4411 ], [ 77.1236, 12.4392 ], [ 77.1299, 12.4419 ], [ 77.1249, 12.4406 ], [ 77.1253, 12.451 ], [ 77.1301, 12.4551 ], [ 77.1326, 12.4695 ], [ 77.1446, 12.4622 ], [ 77.1507, 12.4647 ], [ 77.1512, 12.4613 ], [ 77.1521, 12.4682 ], [ 77.1578, 12.4755 ], [ 77.1648, 12.475 ], [ 77.1681, 12.4853 ], [ 77.1782, 12.4793 ], [ 77.1978, 12.4832 ], [ 77.2002, 12.4905 ], [ 77.2059, 12.4906 ], [ 77.2066, 12.485 ], [ 77.2136, 12.4853 ], [ 77.2167, 12.4923 ], [ 77.2257, 12.4887 ], [ 77.2255, 12.4745 ], [ 77.2298, 12.4837 ], [ 77.2351, 12.483 ], [ 77.2362, 12.47 ], [ 77.2452, 12.468 ], [ 77.2542, 12.4703 ], [ 77.2576, 12.4635 ], [ 77.2643, 12.4616 ], [ 77.2691, 12.4648 ], [ 77.2748, 12.4396 ], [ 77.2703, 12.4348 ], [ 77.2733, 12.4296 ], [ 77.2852, 12.4287 ], [ 77.286, 12.4208 ], [ 77.2818, 12.4208 ], [ 77.2841, 12.4092 ], [ 77.2817, 12.4092 ], [ 77.2859, 12.3931 ], [ 77.3134, 12.3924 ], [ 77.3338, 12.3542 ], [ 77.3251, 12.3265 ], [ 77.3227, 12.3127 ], [ 77.3253, 12.3079 ], [ 77.3028, 12.2987 ], [ 77.268, 12.3141 ], [ 77.2489, 12.3083 ], [ 77.2349, 12.3095 ], [ 77.2251, 12.3034 ], [ 77.2179, 12.3086 ], [ 77.2062, 12.3077 ], [ 77.1568, 12.3186 ], [ 77.1992, 12.3079 ], [ 77.1665, 12.3101 ], [ 77.17, 12.285 ], [ 77.1646, 12.2808 ], [ 77.1699, 12.2596 ], [ 77.152, 12.256 ], [ 77.1449, 12.2499 ], [ 77.1296, 12.2487 ], [ 77.1218, 12.2423 ], [ 77.1084, 12.2407 ], [ 77.1062, 12.2206 ], [ 77.0883, 12.2179 ], [ 77.0811, 12.2231 ], [ 77.0778, 12.2212 ], [ 77.079, 12.237 ], [ 77.0693, 12.237 ], [ 77.0646, 12.2329 ], [ 77.0556, 12.2389 ], [ 77.0493, 12.2385 ], [ 77.0471, 12.2337 ], [ 77.0363, 12.2322 ], [ 77.0299, 12.243 ], [ 77.0345, 12.2331 ], [ 77.0291, 12.2401 ], [ 77.0301, 12.237 ], [ 77.01, 12.2447 ], [ 76.9953, 12.2422 ], [ 76.9938, 12.2518 ], [ 76.9896, 12.2561 ] ], [ [ 77.1019, 12.4221 ], [ 77.102, 12.4219 ], [ 77.1015, 12.4387 ], [ 77.1019, 12.4221 ] ], [ [ 77.0225, 12.2449 ], [ 77.0215, 12.2419 ], [ 77.0236, 12.2438 ], [ 77.0225, 12.2449 ] ], [ [ 77.0338, 12.4134 ], [ 77.0447, 12.4138 ], [ 77.0388, 12.4153 ], [ 77.0338, 12.4134 ] ], [ [ 77.0455, 12.4136 ], [ 77.0453, 12.4137 ], [ 77.0451, 12.395 ], [ 77.0455, 12.4136 ] ], [ [ 77.0409, 12.387 ], [ 77.0403, 12.3756 ], [ 77.0503, 12.3731 ], [ 77.0496, 12.3686 ], [ 77.0525, 12.3687 ], [ 77.0526, 12.3697 ], [ 77.067, 12.3776 ], [ 77.0739, 12.3772 ], [ 77.0752, 12.3847 ], [ 77.0811, 12.3869 ], [ 77.0761, 12.39 ], [ 77.0623, 12.3893 ], [ 77.0581, 12.3918 ], [ 77.0577, 12.3888 ], [ 77.0513, 12.391 ], [ 77.0409, 12.387 ] ], [ [ 77.0766, 12.3925 ], [ 77.0753, 12.4033 ], [ 77.0761, 12.39 ], [ 77.0766, 12.3925 ] ], [ [ 77.072, 12.4043 ], [ 77.072, 12.4041 ], [ 77.0753, 12.4033 ], [ 77.072, 12.4043 ] ], [ [ 77.1058, 12.3598 ], [ 77.1046, 12.364 ], [ 77.1058, 12.3597 ], [ 77.1058, 12.3598 ] ], [ [ 77.1421, 12.368 ], [ 77.1331, 12.37 ], [ 77.1331, 12.3698 ], [ 77.1421, 12.368 ] ], [ [ 77.1454, 12.3646 ], [ 77.1471, 12.364 ], [ 77.1472, 12.3641 ], [ 77.1454, 12.3646 ] ], [ [ 77.1434, 12.3652 ], [ 77.1435, 12.3652 ], [ 77.1437, 12.3704 ], [ 77.1434, 12.3652 ] ], [ [ 77.1462, 12.3897 ], [ 77.1417, 12.3792 ], [ 77.1471, 12.3899 ], [ 77.1462, 12.3897 ] ], [ [ 77.1534, 12.3967 ], [ 77.1555, 12.3879 ], [ 77.1534, 12.3976 ], [ 77.1502, 12.3978 ], [ 77.1496, 12.3951 ], [ 77.1534, 12.3967 ] ], [ [ 77.1782, 12.3832 ], [ 77.1782, 12.3834 ], [ 77.1555, 12.3879 ], [ 77.1782, 12.3832 ] ], [ [ 77.196, 12.3397 ], [ 77.1936, 12.3425 ], [ 77.1937, 12.3412 ], [ 77.196, 12.3397 ] ], [ [ 77.2313, 12.3252 ], [ 77.2008, 12.3367 ], [ 77.2018, 12.336 ], [ 77.2313, 12.3252 ] ], [ [ 77.1433, 12.3521 ], [ 77.1434, 12.3433 ], [ 77.1445, 12.3435 ], [ 77.1433, 12.3521 ] ], [ [ 77.1464, 12.3396 ], [ 77.1454, 12.3441 ], [ 77.1445, 12.3435 ], [ 77.1464, 12.3396 ] ], [ [ 76.9281, 12.4216 ], [ 76.9338, 12.4235 ], [ 76.9283, 12.4219 ], [ 76.9281, 12.4216 ] ], [ [ 76.966, 12.3978 ], [ 76.9661, 12.3974 ], [ 76.9662, 12.3974 ], [ 76.966, 12.3978 ] ], [ [ 76.9825, 12.4013 ], [ 76.9799, 12.4004 ], [ 76.9799, 12.3962 ], [ 76.9737, 12.3964 ], [ 76.9802, 12.3956 ], [ 76.9825, 12.4013 ] ], [ [ 76.9956, 12.4059 ], [ 76.9919, 12.4046 ], [ 77.0028, 12.4049 ], [ 77.0166, 12.4048 ], [ 76.9956, 12.4059 ] ], [ [ 77.0245, 12.4031 ], [ 77.0241, 12.3917 ], [ 77.0251, 12.4057 ], [ 77.0245, 12.4031 ] ], [ [ 77.0203, 12.3829 ], [ 77.0204, 12.3829 ], [ 77.0241, 12.3917 ], [ 77.0203, 12.3829 ] ], [ [ 77.0256, 12.4129 ], [ 77.0256, 12.4131 ], [ 77.0235, 12.4215 ], [ 77.0256, 12.4129 ] ], [ [ 77.0052, 12.4267 ], [ 77.015, 12.4234 ], [ 77.0235, 12.4215 ], [ 77.0052, 12.4267 ] ], [ [ 77.0537, 12.347 ], [ 77.0615, 12.3444 ], [ 77.0607, 12.3451 ], [ 77.0537, 12.347 ] ], [ [ 77.0647, 12.3413 ], [ 77.0635, 12.3424 ], [ 77.0643, 12.3414 ], [ 77.0647, 12.3413 ] ], [ [ 77.0632, 12.3384 ], [ 77.0635, 12.3396 ], [ 77.0632, 12.3392 ], [ 77.057, 12.3383 ], [ 77.0632, 12.3384 ] ], [ [ 77.0511, 12.3318 ], [ 77.0492, 12.3272 ], [ 77.057, 12.3383 ], [ 77.0511, 12.3318 ] ], [ [ 77.0503, 12.3168 ], [ 77.0423, 12.3164 ], [ 77.0564, 12.3155 ], [ 77.0503, 12.3168 ] ], [ [ 77.0578, 12.2774 ], [ 77.0505, 12.254 ], [ 77.0561, 12.2706 ], [ 77.0578, 12.2774 ] ], [ [ 76.9935, 12.3792 ], [ 76.9938, 12.3805 ], [ 76.9908, 12.3801 ], [ 76.9935, 12.3792 ] ], [ [ 77.0042, 12.376 ], [ 77.0093, 12.3761 ], [ 77.0038, 12.3761 ], [ 77.0042, 12.376 ] ], [ [ 77.0008, 12.3598 ], [ 77.0009, 12.3576 ], [ 77.0042, 12.376 ], [ 77.0008, 12.3598 ] ], [ [ 77.0011, 12.356 ], [ 77.002, 12.3518 ], [ 77.0035, 12.3522 ], [ 77.0011, 12.356 ] ], [ [ 77.0054, 12.3488 ], [ 77.0055, 12.349 ], [ 77.0053, 12.3493 ], [ 77.0054, 12.3488 ] ], [ [ 77.0142, 12.348 ], [ 77.0152, 12.3488 ], [ 77.0055, 12.349 ], [ 77.0142, 12.348 ] ], [ [ 77.0122, 12.3012 ], [ 77.014, 12.3205 ], [ 77.0128, 12.3159 ], [ 77.0122, 12.3012 ] ], [ [ 77.0152, 12.2927 ], [ 77.0115, 12.2878 ], [ 77.0129, 12.2872 ], [ 77.0152, 12.2927 ] ], [ [ 77.0186, 12.2846 ], [ 77.0178, 12.2849 ], [ 77.0197, 12.2795 ], [ 77.0186, 12.2846 ] ], [ [ 77.0239, 12.2761 ], [ 77.0239, 12.2763 ], [ 77.0197, 12.2795 ], [ 77.0239, 12.2761 ] ], [ [ 77.0376, 12.3016 ], [ 77.0384, 12.2978 ], [ 77.0381, 12.3016 ], [ 77.0376, 12.3016 ] ], [ [ 77.0357, 12.3104 ], [ 77.0363, 12.3076 ], [ 77.0364, 12.3105 ], [ 77.0357, 12.3104 ] ], [ [ 77.0353, 12.3123 ], [ 77.0354, 12.3122 ], [ 77.0355, 12.3125 ], [ 77.0353, 12.3123 ] ], [ [ 77.0401, 12.3162 ], [ 77.0385, 12.3149 ], [ 77.0409, 12.3163 ], [ 77.0401, 12.3162 ] ], [ [ 77.0244, 12.2579 ], [ 77.0213, 12.2568 ], [ 77.0235, 12.2574 ], [ 77.0272, 12.2532 ], [ 77.0244, 12.2579 ] ], [ [ 77.0236, 12.2461 ], [ 77.0237, 12.2487 ], [ 77.0228, 12.2459 ], [ 77.0236, 12.2461 ] ], [ [ 77.024, 12.2546 ], [ 77.0235, 12.2539 ], [ 77.0239, 12.2529 ], [ 77.024, 12.2546 ] ], [ [ 76.9921, 12.2849 ], [ 76.9979, 12.2853 ], [ 76.9924, 12.2852 ], [ 76.9921, 12.2849 ] ], [ [ 77.0161, 12.3763 ], [ 77.017, 12.375 ], [ 77.0165, 12.3763 ], [ 77.0234, 12.3809 ], [ 77.0161, 12.3763 ] ], [ [ 77.0226, 12.3707 ], [ 77.0191, 12.3705 ], [ 77.0194, 12.3699 ], [ 77.0226, 12.3707 ] ], [ [ 77.0168, 12.35 ], [ 77.0157, 12.3513 ], [ 77.0162, 12.3496 ], [ 77.0168, 12.35 ] ], [ [ 77.0143, 12.3528 ], [ 77.0076, 12.3514 ], [ 77.0146, 12.3524 ], [ 77.0143, 12.3528 ] ], [ [ 77.0076, 12.3591 ], [ 77.0058, 12.3589 ], [ 77.0106, 12.3572 ], [ 77.0076, 12.3591 ] ], [ [ 77.0161, 12.3561 ], [ 77.0162, 12.3564 ], [ 77.013, 12.3587 ], [ 77.0161, 12.3561 ] ], [ [ 76.9499, 12.3917 ], [ 76.9481, 12.3917 ], [ 76.96, 12.3799 ], [ 76.9499, 12.3917 ] ], [ [ 76.9687, 12.3855 ], [ 76.9705, 12.3862 ], [ 76.9734, 12.3894 ], [ 76.9687, 12.3855 ] ], [ [ 76.9797, 12.3947 ], [ 76.9802, 12.3947 ], [ 76.9802, 12.3951 ], [ 76.9797, 12.3947 ] ], [ [ 77.0882, 12.2917 ], [ 77.0852, 12.3061 ], [ 77.089, 12.2831 ], [ 77.0882, 12.2917 ] ], [ [ 77.1065, 12.2918 ], [ 77.109, 12.2949 ], [ 77.1087, 12.2947 ], [ 77.1065, 12.2918 ] ], [ [ 77.1041, 12.2719 ], [ 77.1026, 12.2605 ], [ 77.1027, 12.2605 ], [ 77.1041, 12.2719 ] ], [ [ 77.1187, 12.2566 ], [ 77.1133, 12.2593 ], [ 77.1079, 12.2592 ], [ 77.1187, 12.2566 ] ], [ [ 77.1235, 12.3016 ], [ 77.1218, 12.3002 ], [ 77.1231, 12.3006 ], [ 77.1235, 12.3016 ] ], [ [ 77.1508, 12.2813 ], [ 77.1509, 12.2813 ], [ 77.1486, 12.2863 ], [ 77.1508, 12.2813 ] ], [ [ 77.1556, 12.2824 ], [ 77.1556, 12.2826 ], [ 77.1522, 12.2816 ], [ 77.1556, 12.2824 ] ], [ [ 77.1562, 12.2882 ], [ 77.1548, 12.2879 ], [ 77.155, 12.287 ], [ 77.1562, 12.2882 ] ], [ [ 77.0744, 12.3412 ], [ 77.0744, 12.3416 ], [ 77.0721, 12.3415 ], [ 77.0744, 12.3412 ] ], [ [ 77.0831, 12.3448 ], [ 77.0856, 12.3457 ], [ 77.0844, 12.3457 ], [ 77.0831, 12.3448 ] ], [ [ 77.2072, 12.4016 ], [ 77.2095, 12.4006 ], [ 77.2093, 12.401 ], [ 77.2072, 12.4016 ] ], [ [ 77.2104, 12.3991 ], [ 77.2108, 12.3946 ], [ 77.2113, 12.3974 ], [ 77.2104, 12.3991 ] ], [ [ 77.2103, 12.3926 ], [ 77.2026, 12.3865 ], [ 77.2102, 12.3922 ], [ 77.2103, 12.3926 ] ], [ [ 77.2046, 12.3793 ], [ 77.2045, 12.3748 ], [ 77.2063, 12.3727 ], [ 77.2046, 12.3793 ] ], [ [ 77.2026, 12.3538 ], [ 77.2032, 12.3609 ], [ 77.2009, 12.35 ], [ 77.2026, 12.3538 ] ], [ [ 77.1759, 12.4746 ], [ 77.1795, 12.4717 ], [ 77.1777, 12.4739 ], [ 77.1759, 12.4746 ] ], [ [ 77.186, 12.4665 ], [ 77.1907, 12.4628 ], [ 77.1907, 12.464 ], [ 77.186, 12.4665 ] ], [ [ 77.1897, 12.4394 ], [ 77.1806, 12.4334 ], [ 77.1895, 12.438 ], [ 77.1897, 12.4394 ] ], [ [ 77.1806, 12.4305 ], [ 77.1807, 12.4305 ], [ 77.1806, 12.4334 ], [ 77.1806, 12.4305 ] ], [ [ 77.1863, 12.4279 ], [ 77.188, 12.4272 ], [ 77.194, 12.4268 ], [ 77.1863, 12.4279 ] ], [ [ 77.1973, 12.4263 ], [ 77.1972, 12.4254 ], [ 77.1976, 12.4263 ], [ 77.1973, 12.4263 ] ], [ [ 77.0726, 12.4402 ], [ 77.0741, 12.4342 ], [ 77.0729, 12.4403 ], [ 77.0726, 12.4402 ] ], [ [ 77.0701, 12.4126 ], [ 77.0739, 12.414 ], [ 77.0672, 12.4138 ], [ 77.0701, 12.4126 ] ], [ [ 77.0915, 12.4099 ], [ 77.0874, 12.4144 ], [ 77.0862, 12.4144 ], [ 77.0915, 12.4099 ] ], [ [ 77.1079, 12.4196 ], [ 77.1034, 12.421 ], [ 77.1043, 12.4204 ], [ 77.1079, 12.4196 ] ], [ [ 77.1325, 12.442 ], [ 77.1324, 12.4426 ], [ 77.1319, 12.4425 ], [ 77.1325, 12.442 ] ], [ [ 77.1417, 12.4251 ], [ 77.14, 12.4365 ], [ 77.1397, 12.4297 ], [ 77.1417, 12.4251 ] ], [ [ 77.1451, 12.4173 ], [ 77.1443, 12.4198 ], [ 77.144, 12.4199 ], [ 77.1451, 12.4173 ] ], [ [ 77.1453, 12.4197 ], [ 77.1499, 12.4181 ], [ 77.1493, 12.4192 ], [ 77.1453, 12.4197 ] ], [ [ 77.1687, 12.4278 ], [ 77.1687, 12.4281 ], [ 77.1591, 12.4313 ], [ 77.1687, 12.4278 ] ], [ [ 77.1692, 12.4104 ], [ 77.1696, 12.4155 ], [ 77.1689, 12.4251 ], [ 77.1692, 12.4104 ] ], [ [ 77.1689, 12.4059 ], [ 77.1504, 12.4087 ], [ 77.1688, 12.4048 ], [ 77.1689, 12.4059 ] ], [ [ 77.1103, 12.4032 ], [ 77.1144, 12.4011 ], [ 77.1082, 12.4066 ], [ 77.1103, 12.4032 ] ], [ [ 77.1334, 12.4179 ], [ 77.1261, 12.4205 ], [ 77.1335, 12.4177 ], [ 77.1334, 12.4179 ] ], [ [ 77.1382, 12.3995 ], [ 77.1411, 12.405 ], [ 77.1381, 12.4046 ], [ 77.1382, 12.3995 ] ], [ [ 77.1382, 12.3987 ], [ 77.1382, 12.3985 ], [ 77.1501, 12.3978 ], [ 77.1382, 12.3987 ] ], [ [ 77.1389, 12.4584 ], [ 77.1395, 12.4614 ], [ 77.1381, 12.4581 ], [ 77.1389, 12.4584 ] ], [ [ 77.2349, 12.3774 ], [ 77.2356, 12.3684 ], [ 77.2362, 12.3748 ], [ 77.2349, 12.3774 ] ], [ [ 77.2489, 12.3744 ], [ 77.2699, 12.3689 ], [ 77.2666, 12.3702 ], [ 77.2489, 12.3744 ] ], [ [ 77.2713, 12.3683 ], [ 77.2718, 12.3639 ], [ 77.2717, 12.3682 ], [ 77.2713, 12.3683 ] ], [ [ 77.3056, 12.3173 ], [ 77.3012, 12.3166 ], [ 77.3028, 12.3152 ], [ 77.3056, 12.3173 ] ], [ [ 77.263, 12.3257 ], [ 77.2637, 12.3276 ], [ 77.2622, 12.3291 ], [ 77.263, 12.3257 ] ], [ [ 77.295, 12.3561 ], [ 77.2927, 12.3598 ], [ 77.2899, 12.3605 ], [ 77.295, 12.3561 ] ], [ [ 77.2489, 12.3457 ], [ 77.2485, 12.3405 ], [ 77.2493, 12.3399 ], [ 77.2489, 12.3457 ] ], [ [ 77.3056, 12.3596 ], [ 77.3053, 12.3585 ], [ 77.3076, 12.3584 ], [ 77.3056, 12.3596 ] ], [ [ 77.3068, 12.3629 ], [ 77.3058, 12.3631 ], [ 77.3051, 12.3612 ], [ 77.3068, 12.3629 ] ], [ [ 77.2912, 12.3695 ], [ 77.2933, 12.3692 ], [ 77.2933, 12.371 ], [ 77.2912, 12.3695 ] ], [ [ 77.2146, 12.4176 ], [ 77.2107, 12.418 ], [ 77.2107, 12.4175 ], [ 77.2146, 12.4176 ] ], [ [ 77.2239, 12.4179 ], [ 77.2191, 12.4187 ], [ 77.2193, 12.4178 ], [ 77.2239, 12.4179 ] ], [ [ 77.2264, 12.4175 ], [ 77.2272, 12.4088 ], [ 77.2275, 12.4199 ], [ 77.2264, 12.4175 ] ], [ [ 77.237, 12.4249 ], [ 77.2365, 12.4249 ], [ 77.2275, 12.4199 ], [ 77.237, 12.4249 ] ], [ [ 77.2487, 12.4333 ], [ 77.2463, 12.4386 ], [ 77.2486, 12.4333 ], [ 77.2487, 12.4333 ] ], [ [ 77.2366, 12.4395 ], [ 77.2343, 12.4379 ], [ 77.2463, 12.4386 ], [ 77.2366, 12.4395 ] ], [ [ 77.2558, 12.4344 ], [ 77.2525, 12.4455 ], [ 77.2545, 12.4342 ], [ 77.2558, 12.4344 ] ], [ [ 77.2556, 12.4033 ], [ 77.2728, 12.3975 ], [ 77.272, 12.3984 ], [ 77.2556, 12.4033 ] ], [ [ 77.2384, 12.3978 ], [ 77.2383, 12.3978 ], [ 77.2389, 12.3958 ], [ 77.2384, 12.3978 ] ], [ [ 77.2401, 12.3903 ], [ 77.2399, 12.3911 ], [ 77.2357, 12.3794 ], [ 77.2401, 12.3903 ] ], [ [ 77.2189, 12.3744 ], [ 77.2189, 12.3746 ], [ 77.2066, 12.3724 ], [ 77.2189, 12.3744 ] ], [ [ 77.2225, 12.3897 ], [ 77.223, 12.3806 ], [ 77.2226, 12.3897 ], [ 77.2225, 12.3897 ] ], [ [ 77.2172, 12.3909 ], [ 77.2173, 12.3909 ], [ 77.2171, 12.3916 ], [ 77.2172, 12.3909 ] ], [ [ 77.2168, 12.397 ], [ 77.2169, 12.3946 ], [ 77.2207, 12.4081 ], [ 77.2168, 12.397 ] ], [ [ 77.213, 12.3961 ], [ 77.2131, 12.396 ], [ 77.2168, 12.397 ], [ 77.213, 12.3961 ] ], [ [ 77.2457, 12.403 ], [ 77.2495, 12.4052 ], [ 77.2489, 12.4053 ], [ 77.2457, 12.403 ] ], [ [ 77.1953, 12.4497 ], [ 77.1917, 12.4464 ], [ 77.1953, 12.4486 ], [ 77.1953, 12.4497 ] ], [ [ 77.2054, 12.4529 ], [ 77.2151, 12.4513 ], [ 77.224, 12.4546 ], [ 77.2054, 12.4529 ] ], [ [ 77.2225, 12.4465 ], [ 77.2169, 12.4462 ], [ 77.2225, 12.4452 ], [ 77.2225, 12.4465 ] ], [ [ 77.2231, 12.4404 ], [ 77.2226, 12.4405 ], [ 77.2226, 12.4402 ], [ 77.2231, 12.4404 ] ], [ [ 77.2236, 12.4356 ], [ 77.2287, 12.4354 ], [ 77.2236, 12.4358 ], [ 77.2236, 12.4356 ] ], [ [ 77.2289, 12.4389 ], [ 77.2325, 12.4378 ], [ 77.2332, 12.4378 ], [ 77.2289, 12.4389 ] ], [ [ 77.2208, 12.4334 ], [ 77.2188, 12.4388 ], [ 77.2204, 12.4282 ], [ 77.2208, 12.4334 ] ], [ [ 77.2149, 12.4285 ], [ 77.2142, 12.427 ], [ 77.2204, 12.4282 ], [ 77.2149, 12.4285 ] ], [ [ 77.2176, 12.4245 ], [ 77.2174, 12.4246 ], [ 77.2174, 12.4241 ], [ 77.2176, 12.4245 ] ], [ [ 77.2141, 12.4269 ], [ 77.2138, 12.4263 ], [ 77.2152, 12.4262 ], [ 77.2141, 12.4269 ] ], [ [ 77.1995, 12.4645 ], [ 77.2013, 12.4551 ], [ 77.2008, 12.4646 ], [ 77.1995, 12.4645 ] ], [ [ 77.2255, 12.4744 ], [ 77.2255, 12.4741 ], [ 77.2288, 12.4692 ], [ 77.2255, 12.4744 ] ] ], [ [ [ 76.9857, 12.2606 ], [ 76.9824, 12.2545 ], [ 76.972, 12.2534 ], [ 76.9691, 12.2586 ], [ 76.9696, 12.275 ], [ 76.9794, 12.2725 ], [ 76.9857, 12.2606 ] ] ], [ [ [ 76.9093, 12.352 ], [ 76.9095, 12.356 ], [ 76.8983, 12.3567 ], [ 76.899, 12.3737 ], [ 76.91, 12.3749 ], [ 76.9112, 12.3835 ], [ 76.9229, 12.3821 ], [ 76.9222, 12.3736 ], [ 76.9175, 12.3673 ], [ 76.9201, 12.3591 ], [ 76.9137, 12.358 ], [ 76.9132, 12.3526 ], [ 76.9093, 12.352 ] ] ], [ [ [ 77.2379, 12.4998 ], [ 77.2385, 12.489 ], [ 77.235, 12.4866 ], [ 77.2222, 12.4915 ], [ 77.2241, 12.5026 ], [ 77.2379, 12.4998 ] ] ] ] } },
{ "type": "Feature", "properties": { "taluk": "Mandya" }, "geometry": { "type": "Polygon", "coordinates": [ [ [ 76.8371, 12.4777 ], [ 76.8344, 12.4851 ], [ 76.8401, 12.4877 ], [ 76.8272, 12.4879 ], [ 76.8198, 12.4826 ], [ 76.8201, 12.4646 ], [ 76.8117, 12.463 ], [ 76.8033, 12.4684 ], [ 76.8015, 12.4731 ], [ 76.7908, 12.4784 ], [ 76.7777, 12.4753 ], [ 76.7746, 12.4959 ], [ 76.7619, 12.4985 ], [ 76.7668, 12.5236 ], [ 76.7787, 12.5166 ], [ 76.7978, 12.5157 ], [ 76.7985, 12.524 ], [ 76.7676, 12.5351 ], [ 76.7614, 12.5458 ], [ 76.7575, 12.5719 ], [ 76.759, 12.5876 ], [ 76.7686, 12.5873 ], [ 76.7395, 12.5898 ], [ 76.7331, 12.5939 ], [ 76.7294, 12.613 ], [ 76.7345, 12.6195 ], [ 76.7341, 12.6477 ], [ 76.7391, 12.6483 ], [ 76.724, 12.6495 ], [ 76.7064, 12.6624 ], [ 76.7176, 12.6825 ], [ 76.7195, 12.6915 ], [ 76.7307, 12.6849 ], [ 76.7316, 12.6773 ], [ 76.7421, 12.6816 ], [ 76.7551, 12.6822 ], [ 76.7561, 12.671 ], [ 76.7552, 12.6832 ], [ 76.7501, 12.6899 ], [ 76.7495, 12.6966 ], [ 76.758, 12.7033 ], [ 76.7596, 12.7238 ], [ 76.7685, 12.7222 ], [ 76.775, 12.7251 ], [ 76.7814, 12.7439 ], [ 76.7924, 12.7412 ], [ 76.7942, 12.7373 ], [ 76.7987, 12.7382 ], [ 76.805, 12.7304 ], [ 76.8098, 12.7311 ], [ 76.8185, 12.7404 ], [ 76.8216, 12.7483 ], [ 76.8421, 12.7504 ], [ 76.8434, 12.7539 ], [ 76.8603, 12.7498 ], [ 76.8556, 12.7315 ], [ 76.8608, 12.747 ], [ 76.8715, 12.7451 ], [ 76.8803, 12.7393 ], [ 76.8844, 12.7436 ], [ 76.8774, 12.7513 ], [ 76.8597, 12.753 ], [ 76.8809, 12.7562 ], [ 76.8892, 12.7529 ], [ 76.8891, 12.7461 ], [ 76.8955, 12.7512 ], [ 76.9074, 12.7439 ], [ 76.8975, 12.7298 ], [ 76.9158, 12.715 ], [ 76.9251, 12.715 ], [ 76.9313, 12.7097 ], [ 76.947, 12.7064 ], [ 76.9457, 12.701 ], [ 76.9373, 12.703 ], [ 76.9295, 12.6909 ], [ 76.9215, 12.6897 ], [ 76.9193, 12.6741 ], [ 76.9318, 12.6573 ], [ 76.945, 12.6664 ], [ 76.9574, 12.6611 ], [ 76.9701, 12.6278 ], [ 76.9639, 12.6241 ], [ 76.97, 12.6275 ], [ 76.9826, 12.6255 ], [ 76.9858, 12.617 ], [ 76.9862, 12.6063 ], [ 76.9837, 12.6035 ], [ 76.9874, 12.6011 ], [ 76.9853, 12.5976 ], [ 76.9918, 12.5994 ], [ 76.9968, 12.5849 ], [ 76.9868, 12.5811 ], [ 76.9905, 12.5563 ], [ 76.9971, 12.556 ], [ 76.9995, 12.5379 ], [ 77.0112, 12.5369 ], [ 77.013, 12.5259 ], [ 77.0037, 12.5243 ], [ 76.9962, 12.5161 ], [ 76.9858, 12.5233 ], [ 76.9696, 12.5226 ], [ 76.9736, 12.5224 ], [ 76.9761, 12.5095 ], [ 76.9804, 12.5066 ], [ 76.9647, 12.4982 ], [ 76.9505, 12.4971 ], [ 76.9442, 12.4918 ], [ 76.9422, 12.4676 ], [ 76.95, 12.4585 ], [ 76.9477, 12.4468 ], [ 76.9385, 12.4515 ], [ 76.9281, 12.4507 ], [ 76.9224, 12.4418 ], [ 76.9064, 12.4369 ], [ 76.9043, 12.4467 ], [ 76.8893, 12.4544 ], [ 76.877, 12.4513 ], [ 76.8788, 12.4427 ], [ 76.8738, 12.4386 ], [ 76.8659, 12.4391 ], [ 76.8596, 12.4451 ], [ 76.8619, 12.461 ], [ 76.8662, 12.4679 ], [ 76.8532, 12.4706 ], [ 76.8476, 12.4649 ], [ 76.8412, 12.4675 ], [ 76.8421, 12.4761 ], [ 76.8371, 12.4777 ] ], [ [ 76.9706, 12.5372 ], [ 76.999, 12.5414 ], [ 76.9687, 12.5373 ], [ 76.9706, 12.5372 ] ], [ [ 76.8744, 12.7229 ], [ 76.8703, 12.7273 ], [ 76.8733, 12.7227 ], [ 76.8744, 12.7229 ] ], [ [ 76.8862, 12.6899 ], [ 76.8843, 12.6885 ], [ 76.881, 12.6777 ], [ 76.8862, 12.6899 ] ], [ [ 76.8403, 12.6646 ], [ 76.84, 12.6672 ], [ 76.8365, 12.6539 ], [ 76.8403, 12.6646 ] ], [ [ 76.8282, 12.6579 ], [ 76.8397, 12.6515 ], [ 76.8365, 12.6539 ], [ 76.8282, 12.6579 ] ], [ [ 76.8266, 12.6587 ], [ 76.8292, 12.6538 ], [ 76.8282, 12.6579 ], [ 76.8266, 12.6587 ] ], [ [ 76.8508, 12.6341 ], [ 76.8708, 12.6414 ], [ 76.8657, 12.6409 ], [ 76.8508, 12.6341 ] ], [ [ 76.8541, 12.5785 ], [ 76.8544, 12.5791 ], [ 76.8497, 12.5731 ], [ 76.8541, 12.5785 ] ], [ [ 76.8472, 12.5664 ], [ 76.8582, 12.5647 ], [ 76.8487, 12.5695 ], [ 76.8472, 12.5664 ] ], [ [ 76.8707, 12.5348 ], [ 76.8759, 12.5286 ], [ 76.8699, 12.5256 ], [ 76.869, 12.5192 ], [ 76.875, 12.513 ], [ 76.872, 12.5053 ], [ 76.8815, 12.5134 ], [ 76.8919, 12.508 ], [ 76.8945, 12.5139 ], [ 76.8992, 12.5149 ], [ 76.8992, 12.5117 ], [ 76.9013, 12.522 ], [ 76.9096, 12.5182 ], [ 76.9243, 12.5235 ], [ 76.9257, 12.5297 ], [ 76.9153, 12.5383 ], [ 76.9149, 12.5419 ], [ 76.9009, 12.5462 ], [ 76.8963, 12.543 ], [ 76.8854, 12.5452 ], [ 76.8827, 12.5403 ], [ 76.8792, 12.5424 ], [ 76.8837, 12.5383 ], [ 76.8707, 12.5348 ] ], [ [ 76.9204, 12.5416 ], [ 76.9213, 12.5421 ], [ 76.9149, 12.5419 ], [ 76.9204, 12.5416 ] ], [ [ 76.8977, 12.5568 ], [ 76.8985, 12.5507 ], [ 76.9009, 12.5462 ], [ 76.8977, 12.5568 ] ], [ [ 76.9192, 12.4853 ], [ 76.9079, 12.498 ], [ 76.9172, 12.485 ], [ 76.9192, 12.4853 ] ], [ [ 76.7602, 12.6576 ], [ 76.7456, 12.6547 ], [ 76.7569, 12.6563 ], [ 76.7602, 12.6576 ] ], [ [ 76.7598, 12.6474 ], [ 76.775, 12.6497 ], [ 76.771, 12.6504 ], [ 76.7598, 12.6474 ] ], [ [ 76.7751, 12.6497 ], [ 76.7758, 12.6385 ], [ 76.7769, 12.659 ], [ 76.7751, 12.6497 ] ], [ [ 76.8096, 12.6784 ], [ 76.8034, 12.6711 ], [ 76.8105, 12.6784 ], [ 76.8105, 12.6846 ], [ 76.8096, 12.6784 ] ], [ [ 76.8106, 12.6647 ], [ 76.8182, 12.6628 ], [ 76.8157, 12.664 ], [ 76.8106, 12.6647 ] ], [ [ 76.8236, 12.5539 ], [ 76.8218, 12.5557 ], [ 76.8248, 12.5492 ], [ 76.8236, 12.5539 ] ], [ [ 76.8492, 12.5251 ], [ 76.8304, 12.525 ], [ 76.8312, 12.5249 ], [ 76.8492, 12.5251 ] ], [ [ 76.7837, 12.5497 ], [ 76.7905, 12.5641 ], [ 76.7846, 12.5556 ], [ 76.7837, 12.5497 ] ], [ [ 76.8232, 12.5768 ], [ 76.8224, 12.5782 ], [ 76.8189, 12.5662 ], [ 76.8232, 12.5768 ] ], [ [ 76.8167, 12.5267 ], [ 76.8169, 12.5166 ], [ 76.8178, 12.5261 ], [ 76.8167, 12.5267 ] ], [ [ 76.7995, 12.5112 ], [ 76.8044, 12.5071 ], [ 76.7992, 12.5138 ], [ 76.7995, 12.5112 ] ], [ [ 76.8036, 12.5502 ], [ 76.799, 12.5499 ], [ 76.8042, 12.5497 ], [ 76.8036, 12.5502 ] ], [ [ 76.8052, 12.5489 ], [ 76.8048, 12.5482 ], [ 76.8134, 12.5422 ], [ 76.8052, 12.5489 ] ], [ [ 76.7794, 12.6319 ], [ 76.7803, 12.6205 ], [ 76.7803, 12.6324 ], [ 76.7794, 12.6319 ] ], [ [ 76.776, 12.6366 ], [ 76.7761, 12.6351 ], [ 76.7794, 12.6319 ], [ 76.776, 12.6366 ] ], [ [ 76.7829, 12.6339 ], [ 76.7819, 12.6333 ], [ 76.8035, 12.6267 ], [ 76.7829, 12.6339 ] ], [ [ 76.816, 12.6323 ], [ 76.8072, 12.6332 ], [ 76.8284, 12.6295 ], [ 76.816, 12.6323 ] ], [ [ 76.803, 12.5997 ], [ 76.8083, 12.5985 ], [ 76.8038, 12.6011 ], [ 76.803, 12.5997 ] ], [ [ 76.8195, 12.5832 ], [ 76.8112, 12.5976 ], [ 76.8156, 12.5874 ], [ 76.8195, 12.5832 ] ], [ [ 76.8119, 12.6862 ], [ 76.8116, 12.6858 ], [ 76.8213, 12.6858 ], [ 76.8119, 12.6862 ] ], [ [ 76.8271, 12.6959 ], [ 76.8271, 12.6912 ], [ 76.8287, 12.6973 ], [ 76.8271, 12.6959 ] ], [ [ 76.8301, 12.6984 ], [ 76.8292, 12.6977 ], [ 76.8417, 12.6975 ], [ 76.8301, 12.6984 ] ], [ [ 76.8451, 12.7072 ], [ 76.8442, 12.7066 ], [ 76.8417, 12.6975 ], [ 76.8451, 12.7072 ] ], [ [ 76.8496, 12.7097 ], [ 76.8472, 12.7084 ], [ 76.8515, 12.7085 ], [ 76.8496, 12.7097 ] ], [ [ 76.8636, 12.4807 ], [ 76.8643, 12.4805 ], [ 76.8571, 12.4898 ], [ 76.8636, 12.4807 ] ], [ [ 76.8646, 12.4804 ], [ 76.8681, 12.4796 ], [ 76.8817, 12.4832 ], [ 76.8646, 12.4804 ] ], [ [ 76.8512, 12.5457 ], [ 76.8515, 12.5471 ], [ 76.8513, 12.547 ], [ 76.8512, 12.5457 ] ], [ [ 76.8908, 12.5536 ], [ 76.8897, 12.5529 ], [ 76.8939, 12.5524 ], [ 76.8908, 12.5536 ] ], [ [ 76.9236, 12.5561 ], [ 76.9234, 12.5533 ], [ 76.9248, 12.5517 ], [ 76.9236, 12.5561 ] ], [ [ 76.9325, 12.6448 ], [ 76.932, 12.6397 ], [ 76.9341, 12.6372 ], [ 76.9325, 12.6448 ] ], [ [ 76.9417, 12.6348 ], [ 76.9345, 12.6368 ], [ 76.9325, 12.6341 ], [ 76.9417, 12.6348 ] ], [ [ 76.9316, 12.6259 ], [ 76.9291, 12.626 ], [ 76.9315, 12.6251 ], [ 76.9316, 12.6259 ] ], [ [ 76.9235, 12.6264 ], [ 76.9218, 12.6266 ], [ 76.9202, 12.6253 ], [ 76.9235, 12.6264 ] ], [ [ 76.9067, 12.5819 ], [ 76.917, 12.5786 ], [ 76.9079, 12.5823 ], [ 76.9067, 12.5819 ] ], [ [ 76.8859, 12.5621 ], [ 76.8916, 12.5701 ], [ 76.8916, 12.5712 ], [ 76.8859, 12.5621 ] ], [ [ 76.8987, 12.6408 ], [ 76.9012, 12.6296 ], [ 76.9038, 12.6264 ], [ 76.8987, 12.6408 ] ], [ [ 76.8996, 12.672 ], [ 76.9002, 12.6729 ], [ 76.9006, 12.6755 ], [ 76.8996, 12.672 ] ], [ [ 76.8989, 12.6925 ], [ 76.8884, 12.6916 ], [ 76.914, 12.6887 ], [ 76.8989, 12.6925 ] ], [ [ 76.914, 12.5086 ], [ 76.9305, 12.5089 ], [ 76.9258, 12.5096 ], [ 76.914, 12.5086 ] ], [ [ 76.9264, 12.5455 ], [ 76.9365, 12.5429 ], [ 76.9399, 12.5359 ], [ 76.9361, 12.5444 ], [ 76.9264, 12.5455 ] ], [ [ 76.9411, 12.5848 ], [ 76.9324, 12.5824 ], [ 76.9317, 12.5817 ], [ 76.9411, 12.5848 ] ], [ [ 76.9301, 12.5934 ], [ 76.9298, 12.591 ], [ 76.9324, 12.5824 ], [ 76.9301, 12.5934 ] ], [ [ 76.9529, 12.5392 ], [ 76.9519, 12.5388 ], [ 76.9533, 12.5386 ], [ 76.9529, 12.5392 ] ], [ [ 76.9337, 12.5081 ], [ 76.9321, 12.5092 ], [ 76.9327, 12.5079 ], [ 76.9337, 12.5081 ] ], [ [ 76.9332, 12.6046 ], [ 76.9311, 12.6013 ], [ 76.9302, 12.5942 ], [ 76.9332, 12.6046 ] ], [ [ 76.9616, 12.6077 ], [ 76.9569, 12.6069 ], [ 76.9567, 12.6063 ], [ 76.9616, 12.6077 ] ], [ [ 76.9564, 12.5888 ], [ 76.956, 12.6048 ], [ 76.9548, 12.6022 ], [ 76.9564, 12.5888 ] ], [ [ 76.9525, 12.5878 ], [ 76.9604, 12.5889 ], [ 76.9564, 12.5888 ], [ 76.9525, 12.5878 ] ], [ [ 76.9697, 12.5892 ], [ 76.9689, 12.5892 ], [ 76.9701, 12.5889 ], [ 76.9697, 12.5892 ] ], [ [ 76.9446, 12.6244 ], [ 76.9448, 12.6234 ], [ 76.9495, 12.6219 ], [ 76.9446, 12.6244 ] ] ] } },
{ "type": "Feature", "properties": { "taluk": "Nagamangala" }, "geometry": { "type": "Polygon", "coordinates": [ [ [ 76.6402, 12.7256 ], [ 76.6314, 12.7222 ], [ 76.6133, 12.7078 ], [ 76.6131, 12.7021 ], [ 76.6038, 12.7236 ], [ 76.5953, 12.7247 ], [ 76.5966, 12.7426 ], [ 76.6002, 12.7459 ], [ 76.6036, 12.7644 ], [ 76.5987, 12.7636 ], [ 76.5979, 12.7886 ], [ 76.6086, 12.7897 ], [ 76.6085, 12.7924 ], [ 76.6014, 12.8214 ], [ 76.5926, 12.8157 ], [ 76.5861, 12.8185 ], [ 76.5878, 12.8238 ], [ 76.5986, 12.8316 ], [ 76.5777, 12.8469 ], [ 76.5752, 12.8659 ], [ 76.5791, 12.8731 ], [ 76.5965, 12.8809 ], [ 76.5911, 12.8901 ], [ 76.5996, 12.9056 ], [ 76.5963, 12.9199 ], [ 76.5992, 12.9236 ], [ 76.6031, 12.9229 ], [ 76.606, 12.9386 ], [ 76.6162, 12.9371 ], [ 76.6176, 12.9542 ], [ 76.612, 12.9589 ], [ 76.6118, 12.9653 ], [ 76.6214, 12.9655 ], [ 76.6314, 12.9727 ], [ 76.6312, 12.9816 ], [ 76.6338, 12.984 ], [ 76.6298, 12.9943 ], [ 76.6322, 13.0042 ], [ 76.6407, 13.0095 ], [ 76.6533, 13.008 ], [ 76.6605, 13.0243 ], [ 76.6613, 13.0216 ], [ 76.6662, 13.039 ], [ 76.6756, 13.0334 ], [ 76.667, 13.0388 ], [ 76.6728, 13.0553 ], [ 76.6935, 13.0367 ], [ 76.7021, 13.0415 ], [ 76.7717, 13.0344 ], [ 76.7826, 13.0299 ], [ 76.7854, 13.0155 ], [ 76.783, 13.0139 ], [ 76.8147, 13.0137 ], [ 76.8198, 13.005 ], [ 76.8296, 13.0022 ], [ 76.8275, 12.9987 ], [ 76.8414, 12.9891 ], [ 76.8529, 12.9787 ], [ 76.8505, 12.9735 ], [ 76.8397, 12.9735 ], [ 76.8418, 12.9564 ], [ 76.8396, 12.9458 ], [ 76.8487, 12.9441 ], [ 76.8497, 12.9383 ], [ 76.8625, 12.9347 ], [ 76.8626, 12.9288 ], [ 76.887, 12.9352 ], [ 76.8915, 12.9326 ], [ 76.8962, 12.9205 ], [ 76.8672, 12.9186 ], [ 76.8655, 12.905 ], [ 76.8732, 12.8971 ], [ 76.8892, 12.8974 ], [ 76.8945, 12.8739 ], [ 76.8923, 12.8471 ], [ 76.9002, 12.8448 ], [ 76.9058, 12.8283 ], [ 76.9188, 12.818 ], [ 76.9246, 12.804 ], [ 76.9337, 12.8005 ], [ 76.9346, 12.7974 ], [ 76.9282, 12.7996 ], [ 76.9108, 12.7925 ], [ 76.9141, 12.7704 ], [ 76.9099, 12.7696 ], [ 76.9115, 12.7477 ], [ 76.9089, 12.7443 ], [ 76.8955, 12.7512 ], [ 76.8891, 12.7461 ], [ 76.8892, 12.7529 ], [ 76.8809, 12.7562 ], [ 76.8603, 12.7531 ], [ 76.8765, 12.7516 ], [ 76.8841, 12.7459 ], [ 76.8803, 12.7393 ], [ 76.8715, 12.7451 ], [ 76.8598, 12.7469 ], [ 76.8598, 12.7499 ], [ 76.8434, 12.7539 ], [ 76.8421, 12.7504 ], [ 76.8172, 12.7482 ], [ 76.8216, 12.7483 ], [ 76.8205, 12.7429 ], [ 76.8098, 12.7311 ], [ 76.805, 12.7304 ], [ 76.7987, 12.7382 ], [ 76.7942, 12.7373 ], [ 76.7921, 12.7419 ], [ 76.7813, 12.7449 ], [ 76.7757, 12.7258 ], [ 76.7685, 12.7222 ], [ 76.7596, 12.7238 ], [ 76.7592, 12.7044 ], [ 76.7544, 12.6983 ], [ 76.7306, 12.706 ], [ 76.7506, 12.6982 ], [ 76.7494, 12.6924 ], [ 76.7544, 12.6816 ], [ 76.7421, 12.6816 ], [ 76.732, 12.6771 ], [ 76.7308, 12.6847 ], [ 76.7195, 12.6915 ], [ 76.7176, 12.6825 ], [ 76.7064, 12.6624 ], [ 76.7002, 12.6667 ], [ 76.6808, 12.6682 ], [ 76.6827, 12.6765 ], [ 76.6783, 12.6755 ], [ 76.6721, 12.6793 ], [ 76.6745, 12.6929 ], [ 76.663, 12.6978 ], [ 76.6597, 12.6939 ], [ 76.6625, 12.7061 ], [ 76.6597, 12.7319 ], [ 76.6602, 12.7258 ], [ 76.6402, 12.7256 ] ], [ [ 76.6233, 12.7863 ], [ 76.6335, 12.7864 ], [ 76.6347, 12.7977 ], [ 76.6192, 12.7971 ], [ 76.6184, 12.7898 ], [ 76.6085, 12.7924 ], [ 76.6233, 12.7863 ] ], [ [ 76.8395, 12.9807 ], [ 76.8397, 12.9801 ], [ 76.8414, 12.9891 ], [ 76.8395, 12.9807 ] ], [ [ 76.6636, 12.742 ], [ 76.6665, 12.758 ], [ 76.6597, 12.7319 ], [ 76.6636, 12.742 ] ], [ [ 76.698, 12.9919 ], [ 76.6945, 13.0077 ], [ 76.6959, 12.9955 ], [ 76.698, 12.9919 ] ], [ [ 76.6813, 12.9831 ], [ 76.6807, 12.9835 ], [ 76.6782, 12.9792 ], [ 76.6813, 12.9831 ] ], [ [ 76.681, 12.9783 ], [ 76.6811, 12.9795 ], [ 76.6782, 12.9792 ], [ 76.681, 12.9783 ] ], [ [ 76.7068, 12.9516 ], [ 76.7028, 12.9463 ], [ 76.7074, 12.951 ], [ 76.7068, 12.9516 ] ], [ [ 76.713, 12.9456 ], [ 76.7122, 12.9463 ], [ 76.7124, 12.9432 ], [ 76.713, 12.9456 ] ], [ [ 76.7095, 12.9303 ], [ 76.71, 12.9325 ], [ 76.7066, 12.9254 ], [ 76.7095, 12.9303 ] ], [ [ 76.7046, 12.9183 ], [ 76.7035, 12.9259 ], [ 76.7034, 12.917 ], [ 76.7046, 12.9183 ] ], [ [ 76.7028, 12.9163 ], [ 76.7032, 12.9167 ], [ 76.6949, 12.9161 ], [ 76.7028, 12.9163 ] ], [ [ 76.714, 12.9102 ], [ 76.7154, 12.9032 ], [ 76.7157, 12.908 ], [ 76.714, 12.9102 ] ], [ [ 76.7178, 12.9101 ], [ 76.7152, 12.9091 ], [ 76.7175, 12.909 ], [ 76.7178, 12.9101 ] ], [ [ 76.7002, 12.894 ], [ 76.6979, 12.8953 ], [ 76.6997, 12.8936 ], [ 76.7002, 12.894 ] ], [ [ 76.7348, 12.9248 ], [ 76.7343, 12.9269 ], [ 76.7351, 12.913 ], [ 76.7348, 12.9248 ] ], [ [ 76.7754, 12.8977 ], [ 76.7871, 12.8933 ], [ 76.7886, 12.9025 ], [ 76.7858, 12.8941 ], [ 76.7754, 12.8977 ] ], [ [ 76.7708, 12.8579 ], [ 76.7666, 12.8615 ], [ 76.7665, 12.86 ], [ 76.7708, 12.8579 ] ], [ [ 76.7769, 12.8505 ], [ 76.7784, 12.8567 ], [ 76.7772, 12.8549 ], [ 76.7769, 12.8505 ] ], [ [ 76.7768, 12.8503 ], [ 76.7848, 12.8477 ], [ 76.7769, 12.8505 ], [ 76.7768, 12.8503 ] ], [ [ 76.783, 12.8538 ], [ 76.7839, 12.8541 ], [ 76.7784, 12.8567 ], [ 76.783, 12.8538 ] ], [ [ 76.7562, 12.8386 ], [ 76.7486, 12.8289 ], [ 76.7474, 12.8354 ], [ 76.7476, 12.8306 ], [ 76.7277, 12.8277 ], [ 76.7343, 12.8233 ], [ 76.7355, 12.8149 ], [ 76.7401, 12.8122 ], [ 76.7398, 12.8076 ], [ 76.7366, 12.7886 ], [ 76.7407, 12.8103 ], [ 76.749, 12.8077 ], [ 76.756, 12.8113 ], [ 76.7614, 12.8095 ], [ 76.7599, 12.7967 ], [ 76.7625, 12.8063 ], [ 76.7698, 12.8059 ], [ 76.7668, 12.8111 ], [ 76.7743, 12.8209 ], [ 76.78, 12.8211 ], [ 76.7799, 12.8235 ], [ 76.7823, 12.8207 ], [ 76.7895, 12.8235 ], [ 76.813, 12.8188 ], [ 76.7971, 12.8223 ], [ 76.8035, 12.8282 ], [ 76.8045, 12.8347 ], [ 76.7988, 12.8348 ], [ 76.7983, 12.8322 ], [ 76.7905, 12.8342 ], [ 76.7856, 12.8258 ], [ 76.7712, 12.8265 ], [ 76.7698, 12.835 ], [ 76.7562, 12.8386 ] ], [ [ 76.7296, 12.8079 ], [ 76.7214, 12.8054 ], [ 76.7398, 12.8076 ], [ 76.7296, 12.8079 ] ], [ [ 76.7909, 12.7589 ], [ 76.7871, 12.7597 ], [ 76.7878, 12.7593 ], [ 76.7909, 12.7589 ] ], [ [ 76.6809, 12.9579 ], [ 76.6599, 12.9537 ], [ 76.6707, 12.9549 ], [ 76.6809, 12.9579 ] ], [ [ 76.6426, 12.9539 ], [ 76.6505, 12.9532 ], [ 76.6599, 12.9537 ], [ 76.6426, 12.9539 ] ], [ [ 76.691, 12.721 ], [ 76.6847, 12.7207 ], [ 76.6896, 12.7199 ], [ 76.691, 12.721 ] ], [ [ 76.687, 12.7108 ], [ 76.6822, 12.7102 ], [ 76.6971, 12.7117 ], [ 76.6878, 12.7118 ], [ 76.6896, 12.7199 ], [ 76.687, 12.7108 ] ], [ [ 76.6835, 12.7156 ], [ 76.6818, 12.7144 ], [ 76.6822, 12.7102 ], [ 76.6835, 12.7156 ] ], [ [ 76.672, 12.9171 ], [ 76.6768, 12.8971 ], [ 76.6773, 12.8972 ], [ 76.672, 12.9171 ] ], [ [ 76.6837, 12.8979 ], [ 76.68, 12.8885 ], [ 76.6857, 12.9003 ], [ 76.6837, 12.8979 ] ], [ [ 76.6926, 12.8826 ], [ 76.6935, 12.8822 ], [ 76.7001, 12.8821 ], [ 76.6926, 12.8826 ] ], [ [ 76.7019, 12.8384 ], [ 76.7012, 12.8351 ], [ 76.7021, 12.8348 ], [ 76.7019, 12.8384 ] ], [ [ 76.7138, 12.8014 ], [ 76.7202, 12.801 ], [ 76.7203, 12.8012 ], [ 76.7138, 12.8014 ] ], [ [ 76.6998, 12.7448 ], [ 76.7007, 12.7656 ], [ 76.6993, 12.7608 ], [ 76.6998, 12.7448 ] ], [ [ 76.7041, 12.7459 ], [ 76.6983, 12.7346 ], [ 76.7053, 12.7471 ], [ 76.6998, 12.7448 ], [ 76.7041, 12.7459 ] ], [ [ 76.6948, 12.724 ], [ 76.6949, 12.7239 ], [ 76.6953, 12.7239 ], [ 76.6948, 12.724 ] ], [ [ 76.6125, 12.8721 ], [ 76.6142, 12.8715 ], [ 76.6067, 12.8774 ], [ 76.6125, 12.8721 ] ], [ [ 76.6269, 12.8669 ], [ 76.6269, 12.8685 ], [ 76.6265, 12.867 ], [ 76.6269, 12.8669 ] ], [ [ 76.6274, 12.8582 ], [ 76.6295, 12.8534 ], [ 76.6274, 12.859 ], [ 76.6274, 12.8582 ] ], [ [ 76.6315, 12.8487 ], [ 76.6416, 12.8255 ], [ 76.6329, 12.8487 ], [ 76.6315, 12.8487 ] ], [ [ 76.6486, 12.8545 ], [ 76.6405, 12.8511 ], [ 76.6464, 12.8535 ], [ 76.6486, 12.8545 ] ], [ [ 76.6468, 12.8584 ], [ 76.6513, 12.8589 ], [ 76.6443, 12.8607 ], [ 76.6486, 12.8545 ], [ 76.6468, 12.8584 ] ], [ [ 76.6487, 12.8327 ], [ 76.6574, 12.8306 ], [ 76.6611, 12.8258 ], [ 76.6565, 12.8323 ], [ 76.6498, 12.8328 ], [ 76.6464, 12.8535 ], [ 76.6487, 12.8327 ] ], [ [ 76.6583, 12.791 ], [ 76.6604, 12.8064 ], [ 76.6595, 12.8048 ], [ 76.6583, 12.791 ] ], [ [ 76.6717, 12.803 ], [ 76.6609, 12.8072 ], [ 76.6608, 12.8071 ], [ 76.6717, 12.803 ] ], [ [ 76.6641, 12.7845 ], [ 76.6643, 12.7883 ], [ 76.6684, 12.7884 ], [ 76.6572, 12.7885 ], [ 76.6642, 12.7876 ], [ 76.6641, 12.7845 ] ], [ [ 76.6562, 12.7857 ], [ 76.6568, 12.7839 ], [ 76.6572, 12.7885 ], [ 76.6562, 12.7857 ] ], [ [ 76.6584, 12.7789 ], [ 76.6584, 12.7826 ], [ 76.6614, 12.7836 ], [ 76.657, 12.7831 ], [ 76.6584, 12.7789 ] ], [ [ 76.6828, 12.7465 ], [ 76.6904, 12.7456 ], [ 76.6936, 12.7466 ], [ 76.6828, 12.7465 ] ], [ [ 76.6537, 12.7763 ], [ 76.6502, 12.7753 ], [ 76.6498, 12.7743 ], [ 76.6537, 12.7763 ] ], [ [ 76.6307, 12.7622 ], [ 76.6236, 12.7659 ], [ 76.6254, 12.7735 ], [ 76.6213, 12.7616 ], [ 76.6301, 12.7584 ], [ 76.6352, 12.7459 ], [ 76.6283, 12.7632 ], [ 76.6307, 12.7622 ] ], [ [ 76.6461, 12.7594 ], [ 76.6504, 12.7596 ], [ 76.6503, 12.7597 ], [ 76.6461, 12.7594 ] ], [ [ 76.651, 12.7584 ], [ 76.6506, 12.7578 ], [ 76.6537, 12.7525 ], [ 76.651, 12.7584 ] ], [ [ 76.6433, 12.7606 ], [ 76.6435, 12.7609 ], [ 76.643, 12.7605 ], [ 76.6433, 12.7606 ] ], [ [ 76.6372, 12.7597 ], [ 76.6382, 12.7598 ], [ 76.6359, 12.7602 ], [ 76.6372, 12.7597 ] ], [ [ 76.7055, 12.7902 ], [ 76.6976, 12.7873 ], [ 76.7013, 12.7869 ], [ 76.7055, 12.7902 ] ], [ [ 76.6967, 12.7833 ], [ 76.6986, 12.7764 ], [ 76.6976, 12.7873 ], [ 76.6967, 12.7833 ] ], [ [ 76.6275, 12.8702 ], [ 76.6273, 12.8697 ], [ 76.6346, 12.8739 ], [ 76.6275, 12.8702 ] ], [ [ 76.6439, 12.8701 ], [ 76.6422, 12.8706 ], [ 76.6439, 12.8698 ], [ 76.6439, 12.8701 ] ], [ [ 76.6434, 12.8816 ], [ 76.6498, 12.8817 ], [ 76.6503, 12.8923 ], [ 76.6447, 12.8883 ], [ 76.6415, 12.8781 ], [ 76.6434, 12.8816 ] ], [ [ 76.6481, 12.8959 ], [ 76.6631, 12.8956 ], [ 76.6706, 12.8964 ], [ 76.6481, 12.8959 ] ], [ [ 76.6519, 12.8817 ], [ 76.6566, 12.874 ], [ 76.6652, 12.8741 ], [ 76.6562, 12.875 ], [ 76.6519, 12.8817 ] ], [ [ 76.6282, 12.8975 ], [ 76.6142, 12.9007 ], [ 76.625, 12.8973 ], [ 76.6282, 12.8975 ] ], [ [ 76.639, 12.8999 ], [ 76.6339, 12.8977 ], [ 76.636, 12.8977 ], [ 76.639, 12.8999 ] ], [ [ 76.6699, 12.9447 ], [ 76.67, 12.9463 ], [ 76.6606, 12.9435 ], [ 76.6699, 12.9447 ] ], [ [ 76.6811, 12.9428 ], [ 76.685, 12.9441 ], [ 76.6807, 12.9441 ], [ 76.681, 12.9275 ], [ 76.6811, 12.9428 ] ], [ [ 76.6763, 12.9271 ], [ 76.6917, 12.9256 ], [ 76.681, 12.9275 ], [ 76.6763, 12.9271 ] ], [ [ 76.6632, 12.9418 ], [ 76.6632, 12.9411 ], [ 76.6655, 12.9421 ], [ 76.6632, 12.9418 ] ], [ [ 76.6651, 12.9417 ], [ 76.667, 12.9423 ], [ 76.6659, 12.9421 ], [ 76.6651, 12.9417 ] ], [ [ 76.6726, 12.9855 ], [ 76.6746, 12.9852 ], [ 76.6712, 12.9902 ], [ 76.6726, 12.9855 ] ], [ [ 76.7135, 12.7259 ], [ 76.7117, 12.7312 ], [ 76.7128, 12.726 ], [ 76.7135, 12.7259 ] ], [ [ 76.7332, 12.7436 ], [ 76.7444, 12.7398 ], [ 76.7329, 12.7451 ], [ 76.7317, 12.7411 ], [ 76.7332, 12.7436 ] ], [ [ 76.7003, 12.7218 ], [ 76.7017, 12.7191 ], [ 76.7028, 12.7208 ], [ 76.7003, 12.7218 ] ], [ [ 76.7041, 12.7227 ], [ 76.7038, 12.7257 ], [ 76.7036, 12.722 ], [ 76.7041, 12.7227 ] ], [ [ 76.6771, 13.0221 ], [ 76.6741, 13.0281 ], [ 76.677, 13.0202 ], [ 76.6771, 13.0221 ] ], [ [ 76.6766, 13.0173 ], [ 76.6768, 13.0189 ], [ 76.676, 13.0171 ], [ 76.6766, 13.0173 ] ], [ [ 76.6618, 13.0197 ], [ 76.6631, 13.0194 ], [ 76.6616, 13.0204 ], [ 76.6618, 13.0197 ] ], [ [ 76.7704, 13.0107 ], [ 76.7526, 13.0117 ], [ 76.7666, 13.0105 ], [ 76.763, 12.9933 ], [ 76.7658, 13.0002 ], [ 76.7778, 13.0028 ], [ 76.789, 12.9977 ], [ 76.7833, 12.9685 ], [ 76.7895, 12.9995 ], [ 76.782, 13.0132 ], [ 76.7704, 13.0107 ] ], [ [ 76.7818, 12.9635 ], [ 76.7826, 12.9629 ], [ 76.7833, 12.9685 ], [ 76.7818, 12.9635 ] ], [ [ 76.7837, 12.962 ], [ 76.7853, 12.9621 ], [ 76.7826, 12.9629 ], [ 76.7837, 12.962 ] ], [ [ 76.7868, 12.968 ], [ 76.7915, 12.9678 ], [ 76.7833, 12.9685 ], [ 76.7868, 12.968 ] ], [ [ 76.7863, 12.9621 ], [ 76.7865, 12.9621 ], [ 76.7868, 12.968 ], [ 76.7863, 12.9621 ] ], [ [ 76.7602, 12.9916 ], [ 76.7478, 12.9863 ], [ 76.7475, 12.9857 ], [ 76.7602, 12.9916 ] ], [ [ 76.754, 12.9952 ], [ 76.7535, 13.0004 ], [ 76.7283, 13.0 ], [ 76.7279, 13.0026 ], [ 76.7182, 13.006 ], [ 76.723, 13.0036 ], [ 76.7156, 13.0023 ], [ 76.7155, 12.9951 ], [ 76.7089, 12.9902 ], [ 76.6966, 12.9889 ], [ 76.7021, 12.9889 ], [ 76.7019, 12.9842 ], [ 76.7131, 12.9839 ], [ 76.7137, 12.9793 ], [ 76.7306, 12.9736 ], [ 76.7285, 12.9626 ], [ 76.7359, 12.96 ], [ 76.7361, 12.9675 ], [ 76.7424, 12.9678 ], [ 76.7429, 12.9737 ], [ 76.7473, 12.9758 ], [ 76.7439, 12.9841 ], [ 76.7408, 12.9845 ], [ 76.7393, 12.992 ], [ 76.754, 12.9952 ] ], [ [ 76.7177, 13.0144 ], [ 76.7171, 13.0135 ], [ 76.7182, 13.006 ], [ 76.7177, 13.0144 ] ], [ [ 76.7373, 12.9592 ], [ 76.7485, 12.9602 ], [ 76.7373, 12.9599 ], [ 76.7373, 12.9592 ] ], [ [ 76.7186, 12.9127 ], [ 76.721, 12.9107 ], [ 76.7186, 12.9129 ], [ 76.7186, 12.9127 ] ], [ [ 76.7243, 12.9077 ], [ 76.7231, 12.9088 ], [ 76.72, 12.9056 ], [ 76.7243, 12.9077 ] ], [ [ 76.7187, 12.9063 ], [ 76.7191, 12.9052 ], [ 76.7197, 12.9055 ], [ 76.7187, 12.9063 ] ], [ [ 76.713, 13.0321 ], [ 76.71, 13.0305 ], [ 76.7122, 13.0291 ], [ 76.713, 13.0321 ] ], [ [ 76.8304, 12.78 ], [ 76.8171, 12.7736 ], [ 76.8183, 12.7737 ], [ 76.8304, 12.78 ] ], [ [ 76.8069, 12.7499 ], [ 76.7988, 12.7572 ], [ 76.8031, 12.752 ], [ 76.8069, 12.7499 ] ], [ [ 76.854, 12.7651 ], [ 76.8533, 12.7716 ], [ 76.8514, 12.773 ], [ 76.854, 12.7651 ] ], [ [ 76.8512, 12.7736 ], [ 76.8554, 12.772 ], [ 76.8509, 12.7747 ], [ 76.8512, 12.7736 ] ], [ [ 76.806, 12.7699 ], [ 76.8123, 12.7626 ], [ 76.8138, 12.7615 ], [ 76.806, 12.7699 ] ], [ [ 76.8813, 12.7677 ], [ 76.8836, 12.7694 ], [ 76.8829, 12.7696 ], [ 76.8813, 12.7677 ] ], [ [ 76.8635, 12.7945 ], [ 76.8613, 12.8074 ], [ 76.8616, 12.8015 ], [ 76.8635, 12.7945 ] ], [ [ 76.7941, 12.8486 ], [ 76.8009, 12.8651 ], [ 76.796, 12.8535 ], [ 76.7941, 12.8486 ] ], [ [ 76.8238, 12.8043 ], [ 76.8345, 12.8487 ], [ 76.8287, 12.8282 ], [ 76.8238, 12.8043 ] ], [ [ 76.8359, 12.873 ], [ 76.8352, 12.8689 ], [ 76.8356, 12.8687 ], [ 76.8359, 12.873 ] ], [ [ 76.84, 12.8706 ], [ 76.8466, 12.8725 ], [ 76.8394, 12.8712 ], [ 76.8385, 12.8794 ], [ 76.8386, 12.8729 ], [ 76.8359, 12.873 ], [ 76.84, 12.8706 ] ], [ [ 76.8545, 12.8781 ], [ 76.8695, 12.8742 ], [ 76.8546, 12.8787 ], [ 76.8545, 12.8781 ] ], [ [ 76.8557, 12.8122 ], [ 76.8562, 12.805 ], [ 76.8564, 12.8049 ], [ 76.8557, 12.8122 ] ], [ [ 76.8663, 12.8116 ], [ 76.8581, 12.8127 ], [ 76.8557, 12.8122 ], [ 76.8663, 12.8116 ] ], [ [ 76.8246, 12.7945 ], [ 76.823, 12.7993 ], [ 76.8228, 12.7985 ], [ 76.8246, 12.7945 ] ], [ [ 76.7908, 12.8019 ], [ 76.7746, 12.8038 ], [ 76.779, 12.802 ], [ 76.7908, 12.8019 ] ], [ [ 76.7726, 12.8111 ], [ 76.7894, 12.8081 ], [ 76.7763, 12.8121 ], [ 76.7726, 12.8111 ] ], [ [ 76.8446, 12.8557 ], [ 76.8516, 12.856 ], [ 76.8518, 12.8579 ], [ 76.8446, 12.8557 ] ], [ [ 76.7986, 12.9388 ], [ 76.8112, 12.9281 ], [ 76.8189, 12.9234 ], [ 76.7986, 12.9388 ] ], [ [ 76.788, 12.9394 ], [ 76.7882, 12.9391 ], [ 76.7986, 12.9388 ], [ 76.788, 12.9394 ] ], [ [ 76.8249, 12.9232 ], [ 76.824, 12.9238 ], [ 76.8189, 12.9234 ], [ 76.8249, 12.9232 ] ], [ [ 76.843, 12.922 ], [ 76.8446, 12.9206 ], [ 76.8427, 12.9292 ], [ 76.8428, 12.9148 ], [ 76.843, 12.922 ] ], [ [ 76.8523, 12.9152 ], [ 76.8513, 12.915 ], [ 76.8516, 12.9147 ], [ 76.8523, 12.9152 ] ], [ [ 76.8539, 12.9163 ], [ 76.8553, 12.9257 ], [ 76.8539, 12.9253 ], [ 76.8539, 12.9163 ] ], [ [ 76.8647, 12.8973 ], [ 76.8645, 12.897 ], [ 76.8724, 12.8971 ], [ 76.8647, 12.8973 ] ], [ [ 76.8352, 12.9403 ], [ 76.8345, 12.9401 ], [ 76.8419, 12.9348 ], [ 76.8352, 12.9403 ] ] ] } },
{ "type": "Feature", "properties": { "taluk": "Pandavapura" }, "geometry": { "type": "MultiPolygon", "coordinates": [ [ [ [ 76.6134, 12.4212 ], [ 76.6088, 12.4265 ], [ 76.5921, 12.4216 ], [ 76.5688, 12.4255 ], [ 76.5736, 12.4335 ], [ 76.5724, 12.4365 ], [ 76.5697, 12.4308 ], [ 76.5676, 12.4346 ], [ 76.5568, 12.4381 ], [ 76.5558, 12.4322 ], [ 76.5481, 12.4397 ], [ 76.5492, 12.4458 ], [ 76.5471, 12.4428 ], [ 76.5418, 12.4436 ], [ 76.5422, 12.4467 ], [ 76.5328, 12.445 ], [ 76.5271, 12.4539 ], [ 76.528, 12.4586 ], [ 76.536, 12.4603 ], [ 76.5374, 12.4724 ], [ 76.5416, 12.4755 ], [ 76.5374, 12.4779 ], [ 76.5316, 12.4757 ], [ 76.5299, 12.479 ], [ 76.5265, 12.4746 ], [ 76.5148, 12.4734 ], [ 76.5136, 12.4805 ], [ 76.5193, 12.4869 ], [ 76.5196, 12.4927 ], [ 76.5158, 12.4931 ], [ 76.5155, 12.5052 ], [ 76.5252, 12.5089 ], [ 76.5241, 12.5168 ], [ 76.5286, 12.5259 ], [ 76.5478, 12.5237 ], [ 76.5485, 12.527 ], [ 76.5414, 12.5338 ], [ 76.5462, 12.5496 ], [ 76.5552, 12.5493 ], [ 76.5643, 12.5678 ], [ 76.5888, 12.5503 ], [ 76.5835, 12.5611 ], [ 76.5831, 12.5749 ], [ 76.599, 12.5752 ], [ 76.6019, 12.6081 ], [ 76.607, 12.6204 ], [ 76.6001, 12.6518 ], [ 76.6135, 12.6459 ], [ 76.6097, 12.6748 ], [ 76.6158, 12.678 ], [ 76.6133, 12.7078 ], [ 76.6402, 12.7256 ], [ 76.6486, 12.7259 ], [ 76.6602, 12.7258 ], [ 76.6625, 12.7061 ], [ 76.6578, 12.688 ], [ 76.663, 12.6978 ], [ 76.6727, 12.6942 ], [ 76.6721, 12.6793 ], [ 76.6783, 12.6755 ], [ 76.6827, 12.6765 ], [ 76.6808, 12.6682 ], [ 76.7002, 12.6667 ], [ 76.724, 12.6495 ], [ 76.7341, 12.6477 ], [ 76.7345, 12.6195 ], [ 76.7293, 12.6123 ], [ 76.7315, 12.5973 ], [ 76.7393, 12.5902 ], [ 76.759, 12.5876 ], [ 76.7575, 12.5719 ], [ 76.7614, 12.5458 ], [ 76.7676, 12.5351 ], [ 76.7985, 12.524 ], [ 76.7968, 12.517 ], [ 76.78, 12.516 ], [ 76.7668, 12.5236 ], [ 76.7631, 12.5013 ], [ 76.7546, 12.4826 ], [ 76.7438, 12.4813 ], [ 76.7351, 12.4852 ], [ 76.7101, 12.4777 ], [ 76.7033, 12.4823 ], [ 76.7025, 12.4804 ], [ 76.7013, 12.4858 ], [ 76.697, 12.4869 ], [ 76.6964, 12.4826 ], [ 76.6926, 12.4813 ], [ 76.6905, 12.4833 ], [ 76.697, 12.4753 ], [ 76.6947, 12.4706 ], [ 76.6846, 12.4726 ], [ 76.6872, 12.4631 ], [ 76.6851, 12.4586 ], [ 76.6793, 12.4588 ], [ 76.6765, 12.4659 ], [ 76.6703, 12.4686 ], [ 76.6621, 12.4663 ], [ 76.6618, 12.4549 ], [ 76.6667, 12.4437 ], [ 76.6586, 12.443 ], [ 76.6569, 12.4351 ], [ 76.6619, 12.43 ], [ 76.6527, 12.4242 ], [ 76.6492, 12.4266 ], [ 76.6507, 12.432 ], [ 76.6134, 12.4212 ] ], [ [ 76.6489, 12.7157 ], [ 76.65, 12.7182 ], [ 76.6486, 12.7259 ], [ 76.6489, 12.7157 ] ], [ [ 76.6518, 12.4748 ], [ 76.6513, 12.4747 ], [ 76.6621, 12.4663 ], [ 76.6518, 12.4748 ] ], [ [ 76.6507, 12.4321 ], [ 76.6396, 12.4384 ], [ 76.6507, 12.432 ], [ 76.6507, 12.4321 ] ], [ [ 76.6454, 12.6806 ], [ 76.6508, 12.6829 ], [ 76.6443, 12.6812 ], [ 76.6454, 12.6806 ] ], [ [ 76.6422, 12.6523 ], [ 76.6386, 12.6532 ], [ 76.6251, 12.6517 ], [ 76.6422, 12.6523 ] ], [ [ 76.6562, 12.678 ], [ 76.6503, 12.656 ], [ 76.6477, 12.6415 ], [ 76.6562, 12.678 ] ], [ [ 76.6398, 12.6408 ], [ 76.6721, 12.6387 ], [ 76.6477, 12.6415 ], [ 76.6398, 12.6408 ] ], [ [ 76.6605, 12.596 ], [ 76.6573, 12.5944 ], [ 76.6562, 12.5907 ], [ 76.6605, 12.596 ] ], [ [ 76.6253, 12.5377 ], [ 76.6403, 12.5612 ], [ 76.6401, 12.5633 ], [ 76.6253, 12.5377 ] ], [ [ 76.6399, 12.5372 ], [ 76.6376, 12.539 ], [ 76.6409, 12.5328 ], [ 76.6399, 12.5372 ] ], [ [ 76.6386, 12.5322 ], [ 76.6386, 12.532 ], [ 76.6409, 12.5328 ], [ 76.6386, 12.5322 ] ], [ [ 76.6367, 12.527 ], [ 76.6364, 12.5219 ], [ 76.6375, 12.5271 ], [ 76.6367, 12.527 ] ], [ [ 76.6774, 12.486 ], [ 76.6833, 12.4912 ], [ 76.6883, 12.4913 ], [ 76.6857, 12.5008 ], [ 76.6991, 12.5085 ], [ 76.6968, 12.5111 ], [ 76.6865, 12.5068 ], [ 76.6799, 12.5129 ], [ 76.652, 12.5143 ], [ 76.6538, 12.4979 ], [ 76.6498, 12.4866 ], [ 76.6407, 12.4924 ], [ 76.6514, 12.4848 ], [ 76.6774, 12.486 ] ], [ [ 76.6455, 12.4811 ], [ 76.6467, 12.4831 ], [ 76.6455, 12.4826 ], [ 76.6455, 12.4811 ] ], [ [ 76.6385, 12.4794 ], [ 76.6381, 12.4792 ], [ 76.647, 12.4781 ], [ 76.6385, 12.4794 ] ], [ [ 76.6485, 12.4772 ], [ 76.6477, 12.4777 ], [ 76.6484, 12.4745 ], [ 76.6485, 12.4772 ] ], [ [ 76.6499, 12.4743 ], [ 76.6486, 12.474 ], [ 76.6492, 12.4711 ], [ 76.6499, 12.4743 ] ], [ [ 76.547, 12.5027 ], [ 76.5517, 12.5001 ], [ 76.5519, 12.5002 ], [ 76.547, 12.5027 ] ], [ [ 76.5545, 12.5008 ], [ 76.5632, 12.5031 ], [ 76.5635, 12.5034 ], [ 76.5545, 12.5008 ] ], [ [ 76.5667, 12.5081 ], [ 76.567, 12.5085 ], [ 76.5674, 12.5102 ], [ 76.5667, 12.5081 ] ], [ [ 76.5829, 12.5348 ], [ 76.5907, 12.5328 ], [ 76.5912, 12.5335 ], [ 76.5829, 12.5348 ] ], [ [ 76.5985, 12.5324 ], [ 76.6035, 12.5305 ], [ 76.6023, 12.5318 ], [ 76.5985, 12.5324 ] ], [ [ 76.6199, 12.5161 ], [ 76.6229, 12.5302 ], [ 76.6188, 12.5146 ], [ 76.6072, 12.4967 ], [ 76.6199, 12.5161 ] ], [ [ 76.5932, 12.4724 ], [ 76.588, 12.4716 ], [ 76.5887, 12.4754 ], [ 76.5878, 12.471 ], [ 76.5932, 12.4724 ] ], [ [ 76.6078, 12.4824 ], [ 76.6054, 12.4717 ], [ 76.6061, 12.4739 ], [ 76.6096, 12.4883 ], [ 76.6078, 12.4824 ] ], [ [ 76.6104, 12.4649 ], [ 76.6109, 12.4648 ], [ 76.6105, 12.4703 ], [ 76.6104, 12.4649 ] ], [ [ 76.622, 12.4631 ], [ 76.6246, 12.4628 ], [ 76.629, 12.4659 ], [ 76.622, 12.4631 ] ], [ [ 76.6309, 12.4668 ], [ 76.632, 12.4753 ], [ 76.6301, 12.4664 ], [ 76.6309, 12.4668 ] ], [ [ 76.5343, 12.4491 ], [ 76.5351, 12.449 ], [ 76.5373, 12.4576 ], [ 76.5343, 12.4491 ] ], [ [ 76.559, 12.4468 ], [ 76.5622, 12.4516 ], [ 76.5606, 12.4504 ], [ 76.559, 12.4468 ] ], [ [ 76.5666, 12.4489 ], [ 76.5675, 12.4515 ], [ 76.5641, 12.4482 ], [ 76.5666, 12.4489 ] ], [ [ 76.5774, 12.474 ], [ 76.5775, 12.475 ], [ 76.5726, 12.4661 ], [ 76.5774, 12.474 ] ], [ [ 76.6315, 12.4323 ], [ 76.6282, 12.4382 ], [ 76.6313, 12.4317 ], [ 76.6315, 12.4323 ] ], [ [ 76.5981, 12.4698 ], [ 76.6019, 12.4677 ], [ 76.6008, 12.4698 ], [ 76.5981, 12.4698 ] ], [ [ 76.6025, 12.4666 ], [ 76.6046, 12.4594 ], [ 76.6047, 12.4627 ], [ 76.6025, 12.4666 ] ], [ [ 76.6076, 12.4494 ], [ 76.6023, 12.4424 ], [ 76.6025, 12.4397 ], [ 76.6076, 12.4494 ] ], [ [ 76.6025, 12.4395 ], [ 76.6025, 12.4387 ], [ 76.6078, 12.4361 ], [ 76.6025, 12.4395 ] ], [ [ 76.5605, 12.499 ], [ 76.5587, 12.497 ], [ 76.5588, 12.4967 ], [ 76.5605, 12.499 ] ], [ [ 76.5618, 12.4939 ], [ 76.559, 12.496 ], [ 76.5596, 12.4943 ], [ 76.5618, 12.4939 ] ], [ [ 76.6294, 12.4756 ], [ 76.6294, 12.4757 ], [ 76.6287, 12.4706 ], [ 76.6294, 12.4756 ] ], [ [ 76.5592, 12.5112 ], [ 76.5585, 12.5113 ], [ 76.5588, 12.5107 ], [ 76.5592, 12.5112 ] ], [ [ 76.6472, 12.7117 ], [ 76.6483, 12.7143 ], [ 76.6412, 12.7093 ], [ 76.6472, 12.7117 ] ], [ [ 76.6447, 12.5129 ], [ 76.6514, 12.5144 ], [ 76.6506, 12.5145 ], [ 76.6447, 12.5129 ] ], [ [ 76.6882, 12.5574 ], [ 76.6911, 12.5638 ], [ 76.6913, 12.5649 ], [ 76.6882, 12.5574 ] ], [ [ 76.7253, 12.5476 ], [ 76.7205, 12.5535 ], [ 76.7204, 12.5533 ], [ 76.7253, 12.5476 ] ], [ [ 76.7362, 12.5585 ], [ 76.7437, 12.5597 ], [ 76.7371, 12.56 ], [ 76.7362, 12.5585 ] ], [ [ 76.7048, 12.5095 ], [ 76.7043, 12.505 ], [ 76.7055, 12.5075 ], [ 76.7053, 12.5246 ], [ 76.7048, 12.5095 ] ], [ [ 76.7038, 12.5013 ], [ 76.7052, 12.5009 ], [ 76.704, 12.5026 ], [ 76.7038, 12.5013 ] ], [ [ 76.729, 12.5153 ], [ 76.7187, 12.5138 ], [ 76.7266, 12.5144 ], [ 76.729, 12.5153 ] ], [ [ 76.7458, 12.5257 ], [ 76.7359, 12.5177 ], [ 76.7391, 12.5188 ], [ 76.7458, 12.5257 ] ], [ [ 76.7166, 12.5038 ], [ 76.7184, 12.4995 ], [ 76.7167, 12.511 ], [ 76.7166, 12.5038 ] ], [ [ 76.7267, 12.5045 ], [ 76.7268, 12.5025 ], [ 76.7272, 12.5032 ], [ 76.7267, 12.5045 ] ], [ [ 76.7261, 12.5014 ], [ 76.7245, 12.4999 ], [ 76.7253, 12.5 ], [ 76.7261, 12.5014 ] ], [ [ 76.6735, 12.5938 ], [ 76.6615, 12.5964 ], [ 76.6786, 12.5907 ], [ 76.681, 12.5768 ], [ 76.6788, 12.5913 ], [ 76.6735, 12.5938 ] ], [ [ 76.6963, 12.5779 ], [ 76.6976, 12.5789 ], [ 76.6858, 12.5755 ], [ 76.6963, 12.5779 ] ], [ [ 76.7001, 12.5808 ], [ 76.7021, 12.5822 ], [ 76.7013, 12.5859 ], [ 76.7001, 12.5808 ] ], [ [ 76.6916, 12.5661 ], [ 76.6861, 12.5716 ], [ 76.6861, 12.5713 ], [ 76.6916, 12.5661 ] ], [ [ 76.6735, 12.6271 ], [ 76.6695, 12.633 ], [ 76.6724, 12.6274 ], [ 76.6735, 12.6271 ] ], [ [ 76.6828, 12.6245 ], [ 76.6824, 12.6241 ], [ 76.6864, 12.6047 ], [ 76.6828, 12.6245 ] ], [ [ 76.6722, 12.6008 ], [ 76.676, 12.6104 ], [ 76.6755, 12.6105 ], [ 76.6722, 12.6008 ] ] ], [ [ [ 76.5661, 12.5715 ], [ 76.5649, 12.5767 ], [ 76.5721, 12.5817 ], [ 76.5823, 12.579 ], [ 76.5816, 12.5692 ], [ 76.5661, 12.5715 ] ] ] ] } },
{ "type": "Feature", "properties": { "taluk": "Shrirangapattana" }, "geometry": { "type": "Polygon", "coordinates": [ [ [ 76.721, 12.3596 ], [ 76.7002, 12.3506 ], [ 76.6902, 12.3645 ], [ 76.6833, 12.3656 ], [ 76.6813, 12.3681 ], [ 76.6862, 12.3824 ], [ 76.6814, 12.3864 ], [ 76.6828, 12.3911 ], [ 76.6631, 12.3867 ], [ 76.6551, 12.3956 ], [ 76.6478, 12.397 ], [ 76.6435, 12.3952 ], [ 76.6408, 12.3849 ], [ 76.6269, 12.3779 ], [ 76.6249, 12.3693 ], [ 76.6202, 12.3668 ], [ 76.5986, 12.3667 ], [ 76.5901, 12.3616 ], [ 76.5908, 12.3728 ], [ 76.583, 12.3695 ], [ 76.5699, 12.3719 ], [ 76.5662, 12.3817 ], [ 76.5603, 12.3837 ], [ 76.5592, 12.39 ], [ 76.555, 12.3919 ], [ 76.5583, 12.4001 ], [ 76.5654, 12.3991 ], [ 76.5673, 12.4259 ], [ 76.594, 12.4219 ], [ 76.6088, 12.4265 ], [ 76.6134, 12.4212 ], [ 76.6507, 12.432 ], [ 76.6492, 12.4266 ], [ 76.6538, 12.4241 ], [ 76.6619, 12.43 ], [ 76.6605, 12.4332 ], [ 76.6714, 12.4282 ], [ 76.6569, 12.4351 ], [ 76.6586, 12.443 ], [ 76.6667, 12.4437 ], [ 76.6615, 12.456 ], [ 76.6622, 12.4672 ], [ 76.6703, 12.4686 ], [ 76.6765, 12.4659 ], [ 76.6779, 12.4603 ], [ 76.6853, 12.4579 ], [ 76.6871, 12.4645 ], [ 76.6922, 12.4634 ], [ 76.6849, 12.4664 ], [ 76.6846, 12.4726 ], [ 76.6947, 12.4706 ], [ 76.697, 12.4753 ], [ 76.6929, 12.4807 ], [ 76.6968, 12.4831 ], [ 76.6964, 12.4868 ], [ 76.7101, 12.4777 ], [ 76.7153, 12.4803 ], [ 76.7184, 12.478 ], [ 76.7205, 12.4825 ], [ 76.7307, 12.4823 ], [ 76.7351, 12.4852 ], [ 76.7438, 12.4813 ], [ 76.7546, 12.4826 ], [ 76.7619, 12.4985 ], [ 76.767, 12.4995 ], [ 76.7738, 12.4968 ], [ 76.7777, 12.4753 ], [ 76.792, 12.478 ], [ 76.8081, 12.4675 ], [ 76.8079, 12.4653 ], [ 76.799, 12.4649 ], [ 76.8201, 12.4646 ], [ 76.8195, 12.4821 ], [ 76.8271, 12.4879 ], [ 76.8353, 12.4866 ], [ 76.8383, 12.4764 ], [ 76.8421, 12.4761 ], [ 76.8412, 12.4675 ], [ 76.8476, 12.4649 ], [ 76.8532, 12.4706 ], [ 76.8662, 12.4679 ], [ 76.8619, 12.461 ], [ 76.8596, 12.4451 ], [ 76.869, 12.4383 ], [ 76.8661, 12.4352 ], [ 76.8786, 12.4421 ], [ 76.877, 12.4513 ], [ 76.8924, 12.4537 ], [ 76.9043, 12.4467 ], [ 76.9064, 12.4369 ], [ 76.9035, 12.4268 ], [ 76.9064, 12.4224 ], [ 76.9001, 12.4198 ], [ 76.9003, 12.4089 ], [ 76.8809, 12.4052 ], [ 76.8808, 12.4005 ], [ 76.8776, 12.3997 ], [ 76.862, 12.3997 ], [ 76.8617, 12.4063 ], [ 76.8536, 12.4091 ], [ 76.8483, 12.4032 ], [ 76.8303, 12.4021 ], [ 76.8256, 12.398 ], [ 76.8292, 12.4002 ], [ 76.8342, 12.3959 ], [ 76.8332, 12.3845 ], [ 76.8282, 12.3886 ], [ 76.8155, 12.3871 ], [ 76.8114, 12.3629 ], [ 76.8074, 12.3598 ], [ 76.8006, 12.3757 ], [ 76.8028, 12.355 ], [ 76.7953, 12.3546 ], [ 76.7907, 12.3472 ], [ 76.7824, 12.3467 ], [ 76.7815, 12.3515 ], [ 76.7778, 12.3524 ], [ 76.7657, 12.3504 ], [ 76.7617, 12.3413 ], [ 76.7639, 12.3117 ], [ 76.759, 12.3039 ], [ 76.7528, 12.302 ], [ 76.7449, 12.3105 ], [ 76.7434, 12.3182 ], [ 76.7371, 12.3211 ], [ 76.7317, 12.3165 ], [ 76.7305, 12.3425 ], [ 76.7177, 12.3516 ], [ 76.721, 12.3596 ] ], [ [ 76.6734, 12.4204 ], [ 76.6704, 12.4181 ], [ 76.6705, 12.4137 ], [ 76.6719, 12.4177 ], [ 76.6844, 12.4066 ], [ 76.6919, 12.3941 ], [ 76.7029, 12.3987 ], [ 76.7088, 12.3956 ], [ 76.7147, 12.4011 ], [ 76.7134, 12.4038 ], [ 76.7238, 12.4066 ], [ 76.7134, 12.419 ], [ 76.6991, 12.421 ], [ 76.6924, 12.4256 ], [ 76.6714, 12.4282 ], [ 76.6734, 12.4204 ] ], [ [ 76.6691, 12.4147 ], [ 76.6652, 12.4121 ], [ 76.6705, 12.4137 ], [ 76.6691, 12.4147 ] ], [ [ 76.8273, 12.3948 ], [ 76.8278, 12.3951 ], [ 76.8256, 12.398 ], [ 76.8273, 12.3948 ] ], [ [ 76.8088, 12.3926 ], [ 76.805, 12.3926 ], [ 76.8155, 12.3871 ], [ 76.8088, 12.3926 ] ], [ [ 76.6359, 12.4217 ], [ 76.6348, 12.4259 ], [ 76.6321, 12.4168 ], [ 76.6359, 12.4217 ] ], [ [ 76.6258, 12.4158 ], [ 76.6259, 12.4152 ], [ 76.6321, 12.4168 ], [ 76.6258, 12.4158 ] ], [ [ 76.7432, 12.3643 ], [ 76.7461, 12.366 ], [ 76.7377, 12.3631 ], [ 76.7432, 12.3643 ] ], [ [ 76.749, 12.3619 ], [ 76.7492, 12.362 ], [ 76.7432, 12.3643 ], [ 76.749, 12.3619 ] ], [ [ 76.7469, 12.3537 ], [ 76.7459, 12.3541 ], [ 76.7417, 12.3531 ], [ 76.7469, 12.3537 ] ], [ [ 76.7194, 12.4608 ], [ 76.7174, 12.4769 ], [ 76.7173, 12.4768 ], [ 76.7194, 12.4608 ] ], [ [ 76.7135, 12.4521 ], [ 76.7137, 12.4507 ], [ 76.7194, 12.4608 ], [ 76.7135, 12.4521 ] ], [ [ 76.7388, 12.4409 ], [ 76.7269, 12.442 ], [ 76.739, 12.4402 ], [ 76.7388, 12.4409 ] ], [ [ 76.7398, 12.4368 ], [ 76.7393, 12.439 ], [ 76.7352, 12.4229 ], [ 76.7398, 12.4368 ] ], [ [ 76.749, 12.4301 ], [ 76.7491, 12.4302 ], [ 76.7398, 12.4368 ], [ 76.749, 12.4301 ] ], [ [ 76.758, 12.4054 ], [ 76.7527, 12.4061 ], [ 76.7523, 12.4061 ], [ 76.758, 12.4054 ] ], [ [ 76.7318, 12.4047 ], [ 76.7344, 12.4041 ], [ 76.7347, 12.4042 ], [ 76.7318, 12.4047 ] ], [ [ 76.6643, 12.4096 ], [ 76.6634, 12.4094 ], [ 76.6644, 12.4093 ], [ 76.6643, 12.4096 ] ], [ [ 76.7186, 12.3737 ], [ 76.7209, 12.3703 ], [ 76.7209, 12.3708 ], [ 76.7186, 12.3737 ] ], [ [ 76.6955, 12.3816 ], [ 76.7108, 12.3744 ], [ 76.6951, 12.3829 ], [ 76.6955, 12.3816 ] ], [ [ 76.6944, 12.385 ], [ 76.6947, 12.3843 ], [ 76.6948, 12.3852 ], [ 76.6944, 12.385 ] ], [ [ 76.7109, 12.3876 ], [ 76.7108, 12.3871 ], [ 76.7138, 12.3893 ], [ 76.7109, 12.3876 ] ], [ [ 76.7141, 12.3929 ], [ 76.7141, 12.3927 ], [ 76.7195, 12.3924 ], [ 76.7141, 12.3929 ] ], [ [ 76.59, 12.3766 ], [ 76.5888, 12.3753 ], [ 76.5905, 12.3744 ], [ 76.59, 12.3766 ] ], [ [ 76.596, 12.3754 ], [ 76.5907, 12.3774 ], [ 76.5902, 12.3768 ], [ 76.596, 12.3754 ] ], [ [ 76.5968, 12.3776 ], [ 76.5946, 12.38 ], [ 76.596, 12.3754 ], [ 76.5968, 12.3776 ] ], [ [ 76.6168, 12.3868 ], [ 76.6167, 12.3868 ], [ 76.6124, 12.3835 ], [ 76.6168, 12.3868 ] ], [ [ 76.6331, 12.4027 ], [ 76.6329, 12.403 ], [ 76.6324, 12.3978 ], [ 76.6331, 12.4027 ] ], [ [ 76.6364, 12.3993 ], [ 76.6418, 12.3998 ], [ 76.642, 12.4003 ], [ 76.6364, 12.3993 ] ], [ [ 76.6396, 12.41 ], [ 76.6422, 12.4009 ], [ 76.6429, 12.4031 ], [ 76.6396, 12.41 ] ], [ [ 76.6469, 12.3983 ], [ 76.6464, 12.4004 ], [ 76.6441, 12.4022 ], [ 76.6469, 12.3983 ] ], [ [ 76.5933, 12.4092 ], [ 76.5887, 12.4078 ], [ 76.5882, 12.4071 ], [ 76.5933, 12.4092 ] ], [ [ 76.6787, 12.4478 ], [ 76.6828, 12.4506 ], [ 76.6787, 12.4489 ], [ 76.6787, 12.4478 ] ], [ [ 76.7033, 12.4414 ], [ 76.698, 12.4491 ], [ 76.6977, 12.4491 ], [ 76.7033, 12.4414 ] ], [ [ 76.7061, 12.432 ], [ 76.7063, 12.4412 ], [ 76.706, 12.4408 ], [ 76.7061, 12.432 ] ], [ [ 76.7078, 12.4246 ], [ 76.7095, 12.4278 ], [ 76.7072, 12.4247 ], [ 76.7078, 12.4246 ] ], [ [ 76.6927, 12.4632 ], [ 76.6929, 12.4631 ], [ 76.6929, 12.4632 ], [ 76.6927, 12.4632 ] ], [ [ 76.6976, 12.4595 ], [ 76.6987, 12.4586 ], [ 76.6988, 12.4595 ], [ 76.6976, 12.4595 ] ], [ [ 76.8084, 12.4173 ], [ 76.8027, 12.4122 ], [ 76.8103, 12.4172 ], [ 76.8084, 12.4173 ] ], [ [ 76.8313, 12.4146 ], [ 76.8291, 12.4035 ], [ 76.8304, 12.4028 ], [ 76.8313, 12.4146 ] ], [ [ 76.7796, 12.402 ], [ 76.7793, 12.4026 ], [ 76.7791, 12.4027 ], [ 76.7796, 12.402 ] ], [ [ 76.7956, 12.3633 ], [ 76.7978, 12.3582 ], [ 76.7957, 12.3651 ], [ 76.7956, 12.3633 ] ], [ [ 76.8007, 12.3857 ], [ 76.7983, 12.3835 ], [ 76.7987, 12.3824 ], [ 76.8007, 12.3857 ] ], [ [ 76.8225, 12.3932 ], [ 76.8227, 12.3922 ], [ 76.8267, 12.3945 ], [ 76.8225, 12.3932 ] ], [ [ 76.826, 12.4564 ], [ 76.8268, 12.4615 ], [ 76.8253, 12.4675 ], [ 76.826, 12.4564 ] ], [ [ 76.821, 12.4537 ], [ 76.8256, 12.4534 ], [ 76.8257, 12.4544 ], [ 76.821, 12.4537 ] ], [ [ 76.8443, 12.4364 ], [ 76.8471, 12.4363 ], [ 76.8382, 12.439 ], [ 76.8443, 12.4364 ] ] ] } }
]
}
